zip,zip_lat,zip_long,fac_long,fac_lat,facility_name,nearest_distance
27006,35.944562,-80.437631,-80.572005,35.899528,Davie County Hospital,8.1520507748
27007,36.376884,-80.596265,-80.611253,36.488313,Northern Hospital of Surry County,7.7301239498
27009,36.22393,-80.080018,-80.271580,36.090634,North Carolina Baptist Hospitals,14.116499618
27010,36.1822,-80.3384,-80.300567,36.085231,NCBH Outpatient Endoscopy Center,7.0142043287
27011,36.209184,-80.693772,-80.671282,36.134519,Hoots Memorial Hospital,5.300490424
27012,36.004018,-80.371445,-80.304786,36.061305,Digestive Health Endoscopy Center,5.435890251
27013,35.763468,-80.70373,-80.831029,35.817579,Piedmont HealthCare Endoscopy Center,8.0671442564
27014,35.811967,-80.554258,-80.572005,35.899528,Davie County Hospital,6.1198320118
27016,36.444588,-80.21657,-80.229915,36.417634,Stokes-Reynolds Memorial Hospital,2.0021774228
27017,36.375294,-80.804534,-80.837841,36.262262,"Hugh Chatham Memorial Hospital - Inc.",8.0138423229
27018,36.194473,-80.530126,-80.671282,36.134519,Hoots Memorial Hospital,8.9108180814
27019,36.291218,-80.238076,-80.229915,36.417634,Stokes-Reynolds Memorial Hospital,8.7302287085
27020,36.10595,-80.819786,-80.671282,36.134519,Hoots Memorial Hospital,8.539468621
27021,36.326683,-80.338048,-80.229915,36.417634,Stokes-Reynolds Memorial Hospital,8.7014703114
27022,36.503332,-80.211368,-80.229915,36.417634,Stokes-Reynolds Memorial Hospital,5.9999520476
27023,36.092164,-80.44061,-80.300567,36.085231,NCBH Outpatient Endoscopy Center,7.8533727512
27024,36.516657,-80.82397,-80.611253,36.488313,Northern Hospital of Surry County,12.004196754
27025,36.372196,-79.967095,-80.229915,36.417634,Stokes-Reynolds Memorial Hospital,14.985202659
27027,36.448735,-79.979965,-79.740136,36.493298,Morehead Memorial Hospital,13.70791828
27028,35.896995,-80.579514,-80.572005,35.899528,Davie County Hospital,0.4560969022
27030,36.458463,-80.620723,-80.611253,36.488313,Northern Hospital of Surry County,2.1251659618
27031,36.4995,-80.6078,-80.611253,36.488313,Northern Hospital of Surry County,0.795135177
27040,36.160688,-80.378555,-80.300567,36.085231,NCBH Outpatient Endoscopy Center,6.7910468127
27041,36.413118,-80.47283,-80.611253,36.488313,Northern Hospital of Surry County,9.2938602392
27042,36.342777,-80.055118,-80.229915,36.417634,Stokes-Reynolds Memorial Hospital,11.030565399
27043,36.339284,-80.44511,-80.229915,36.417634,Stokes-Reynolds Memorial Hospital,13.161380602
27045,36.241778,-80.29525,-80.271580,36.090634,North Carolina Baptist Hospitals,10.507104364
27046,36.480137,-80.096185,-80.229915,36.417634,Stokes-Reynolds Memorial Hospital,8.6081917252
27047,36.31518,-80.581493,-80.611253,36.488313,Northern Hospital of Surry County,12.055032097
27048,36.463462,-79.907854,-79.740136,36.493298,Morehead Memorial Hospital,9.5652881039
27049,36.5004,-80.6268,-80.611253,36.488313,Northern Hospital of Surry County,1.2018333099
27050,36.240126,-80.39502,-80.300567,36.085231,NCBH Outpatient Endoscopy Center,11.916628577
27051,36.181824,-80.163394,-80.271580,36.090634,North Carolina Baptist Hospitals,8.7278146388
27052,36.322771,-80.177976,-80.229915,36.417634,Stokes-Reynolds Memorial Hospital,7.1549541207
27053,36.460714,-80.366714,-80.229915,36.417634,Stokes-Reynolds Memorial Hospital,8.1816131453
27054,35.782858,-80.609361,-80.572005,35.899528,Davie County Hospital,8.3144426728
27055,36.123283,-80.637072,-80.671282,36.134519,Hoots Memorial Hospital,2.0648124407
27094,36.2404,-80.2936,-80.271580,36.090634,North Carolina Baptist Hospitals,10.401511155
27098,36.2404,-80.2936,-80.271580,36.090634,North Carolina Baptist Hospitals,10.401511155
27099,36.2404,-80.2936,-80.271580,36.090634,North Carolina Baptist Hospitals,10.401511155
27101,36.118017,-80.20037,-80.271580,36.090634,North Carolina Baptist Hospitals,4.4099213149
27102,36.0983,-80.2466,-80.271580,36.090634,North Carolina Baptist Hospitals,1.4947478214
27103,36.053601,-80.317729,-80.304786,36.061305,Digestive Health Endoscopy Center,0.898633661
27104,36.097729,-80.323493,-80.300567,36.085231,NCBH Outpatient Endoscopy Center,1.5458062335
27105,36.165271,-80.240928,-80.271580,36.090634,North Carolina Baptist Hospitals,5.425339974
27106,36.148011,-80.324205,-80.300567,36.085231,NCBH Outpatient Endoscopy Center,4.5270134378
27107,35.993781,-80.174643,-80.110222,35.881635,Thomasville Medical Center,8.5359251392
27108,36.0866,-80.2488,-80.271580,36.090634,North Carolina Baptist Hospitals,1.3050902198
27109,36.133262,-80.277173,-80.271580,36.090634,North Carolina Baptist Hospitals,2.9563573495
27110,36.089442,-80.224365,-80.271580,36.090634,North Carolina Baptist Hospitals,2.6440588309
27111,36.0986,-80.2468,-80.271580,36.090634,North Carolina Baptist Hospitals,1.4917742663
27113,36.0983,-80.2466,-80.271580,36.090634,North Carolina Baptist Hospitals,1.4947478214
27114,36.1004,-80.2485,-80.271580,36.090634,North Carolina Baptist Hospitals,1.456800841
27115,36.0967,-80.2507,-80.271580,36.090634,North Carolina Baptist Hospitals,1.241283777
27116,36.096,-80.2466,-80.271580,36.090634,North Carolina Baptist Hospitals,1.446298202
27117,36.0999,-80.2467,-80.271580,36.090634,North Carolina Baptist Hospitals,1.5321402188
27120,36.1042,-80.2444,-80.271580,36.090634,North Carolina Baptist Hospitals,1.7858711504
27127,36.022309,-80.290864,-80.304786,36.061305,Digestive Health Endoscopy Center,2.8000002783
27130,36.0768,-80.2497,-80.271580,36.090634,North Carolina Baptist Hospitals,1.5525101101
27150,36.1002,-80.2088,-80.271580,36.090634,North Carolina Baptist Hospitals,3.575157418
27152,36.1005,-80.2083,-80.271580,36.090634,North Carolina Baptist Hospitals,3.6065044628
27155,36.1025,-80.2053,-80.271580,36.090634,North Carolina Baptist Hospitals,3.7987896221
27157,36.0964,-80.2096,-80.271580,36.090634,North Carolina Baptist Hospitals,3.4917889517
27198,36.1003,-80.2498,-80.271580,36.090634,North Carolina Baptist Hospitals,1.3893679528
27199,36.0987,-80.2508,-80.271580,36.090634,North Carolina Baptist Hospitals,1.289232007
27201,36.0351,-79.4863,-79.494951,36.063006,Pioneer Surgery Center,1.9845005746
27202,36.185335,-79.505692,-79.502537,36.063690,Alamance Regional Medical Center,8.3908492329
27203,35.736995,-79.77037,-79.814838,35.711607,Randolph Hospital,3.0524590831
27204,35.7075,-79.8137,-79.814838,35.711607,Randolph Hospital,0.2903530583
27205,35.639792,-79.837802,-79.824267,35.706290,Asheboro Endoscopy Center,4.648362088
27207,35.596643,-79.376426,-79.423342,35.728261,Chatham Hospital,9.4522735252
27208,35.580925,-79.535264,-79.423342,35.728261,Chatham Hospital,11.954145179
27209,35.338011,-79.755106,-79.458375,35.206350,Montgomery Memorial / FirstHealth Moore Regional,19.077871254
27212,36.463544,-79.274298,-79.666282,36.354475,Annie Penn Hospital,23.110076754
27213,35.6458,-79.4149,-79.423342,35.728261,Chatham Hospital,5.7061334347
27214,36.205687,-79.675814,-79.798422,36.141827,HEALTHSOUTH Greensboro Specialty Surgical Center,8.1481926737
27215,36.028661,-79.497186,-79.494951,36.063006,Pioneer Surgery Center,2.3718049253
27216,36.0956,-79.4382,-79.494951,36.063006,Pioneer Surgery Center,3.8917333863
27217,36.208934,-79.379092,-79.494951,36.063006,Pioneer Surgery Center,11.970095939
27228,35.7738,-79.1426,-79.052089,35.903608,University of North Carolina Hospital,10.293642371
27229,35.256275,-79.799824,-79.458375,35.206350,Montgomery Memorial / FirstHealth Moore Regional,19.622082771
27230,35.7518,-79.7317,-79.814838,35.711607,Randolph Hospital,5.4344589001
27231,36.195652,-79.16997,-78.898765,36.040251,Davis Ambulatory,18.577625488
27233,35.893897,-79.699856,-79.814838,35.711607,Randolph Hospital,14.132985639
27235,36.095873,-80.00471,-80.011967,35.962461,High Point Regional Health System,9.2093084578
27237,35.5532,-79.2348,-79.188794,35.468961,Central Carolina Hospital,6.3615992439
27239,35.620257,-80.085057,-79.824267,35.706290,Asheboro Endoscopy Center,15.829547281
27242,35.334064,-79.6397,-79.458375,35.206350,Montgomery Memorial / FirstHealth Moore Regional,13.516251001
27243,36.065892,-79.199567,-79.052089,35.903608,University of North Carolina Hospital,13.912919323
27244,36.2048,-79.486089,-79.502537,36.063690,Alamance Regional Medical Center,9.7747750556
27247,35.4403,-79.7839,-79.824267,35.706290,Asheboro Endoscopy Center,18.482203987
27248,35.779764,-79.708304,-79.814838,35.711607,Randolph Hospital,7.6129986362
27249,36.171053,-79.585608,-79.502537,36.063690,Alamance Regional Medical Center,8.7421573471
27252,35.564048,-79.344892,-79.188794,35.468961,Central Carolina Hospital,10.974426634
27253,35.967271,-79.335749,-79.494951,36.063006,Pioneer Surgery Center,11.097053901
27256,35.566626,-79.282779,-79.188794,35.468961,Central Carolina Hospital,8.5690656561
27258,36.044768,-79.323364,-79.494951,36.063006,Pioneer Surgery Center,9.6906560055
27259,35.4793,-79.5233,-79.423342,35.728261,Chatham Hospital,18.066933803
27260,35.95657,-79.992752,-80.011967,35.962461,High Point Regional Health System,1.151355695
27261,35.9557,-80.0057,-80.014503,35.959985,Bethany Medical Endoscopy Group,0.5752542371
27262,35.953398,-80.044314,-80.016582,35.961258,High Point Endoscopy Center,1.6466274417
27263,35.906674,-79.953118,-80.014503,35.959985,Bethany Medical Endoscopy Group,5.0366694744
27264,35.9557,-80.0057,-80.014503,35.959985,Bethany Medical Endoscopy Group,0.5752542371
27265,36.011878,-80.039182,-80.016582,35.961258,High Point Endoscopy Center,3.713521979
27278,36.069564,-79.064393,-78.935258,36.004745,Duke South / Duke Clinic at Duke University Hospital,8.5027762805
27281,35.183468,-79.640032,-79.458318,35.200801,FirstHealth Moore Regional Hospital,10.354764287
27282,35.994324,-79.92963,-80.011967,35.962461,High Point Regional Health System,5.1115657199
27283,35.950208,-79.631599,-79.502537,36.063690,Alamance Regional Medical Center,10.655560639
27284,36.118256,-80.07602,-80.271580,36.090634,North Carolina Baptist Hospitals,11.108685072
27285,36.1199,-80.0738,-80.271580,36.090634,North Carolina Baptist Hospitals,11.250773776
27288,36.485107,-79.738993,-79.740136,36.493298,Morehead Memorial Hospital,0.568484456
27289,36.4884,-79.7667,-79.740136,36.493298,Morehead Memorial Hospital,1.5173691583
27291,36.389013,-79.170394,-79.666282,36.354475,Annie Penn Hospital,27.759472441
27292,35.732286,-80.191576,-80.287397,35.802946,Lexington Memorial Hospital / Wake Forest Baptist Health,7.2624582491
27293,35.8238,-80.2538,-80.287397,35.802946,Lexington Memorial Hospital / Wake Forest Baptist Health,2.3725996889
27294,35.8238,-80.2538,-80.287397,35.802946,Lexington Memorial Hospital / Wake Forest Baptist Health,2.3725996889
27295,35.874112,-80.330925,-80.287397,35.802946,Lexington Memorial Hospital / Wake Forest Baptist Health,5.4825342041
27298,35.887051,-79.563156,-79.502537,36.063690,Alamance Regional Medical Center,12.646289629
27299,35.760581,-80.387007,-80.287397,35.802946,Lexington Memorial Hospital / Wake Forest Baptist Health,6.3137483827
27301,36.113694,-79.670372,-79.778773,36.096318,Guilford Endoscopy Center,6.1836307001
27302,36.136502,-79.267004,-79.494951,36.063006,Pioneer Surgery Center,13.727349127
27305,36.508343,-79.217338,-79.666282,36.354475,Annie Penn Hospital,27.177128255
27306,35.219835,-79.974232,-80.194304,35.362616,Stanly Regional Medical Center,15.865735873
27310,36.172118,-79.991758,-79.798422,36.141827,HEALTHSOUTH Greensboro Specialty Surgical Center,11.012419986
27311,36.462774,-79.480087,-79.666282,36.354475,Annie Penn Hospital,12.787661343
27312,35.753878,-79.205479,-79.423342,35.728261,Chatham Hospital,12.374923651
27313,35.928908,-79.750414,-79.784290,36.087891,Eagle Endoscopy Center,11.126809818
27314,36.293418,-79.194779,-79.494951,36.063006,Pioneer Surgery Center,23.111801386
27315,36.500448,-79.39326,-79.666282,36.354475,Annie Penn Hospital,18.245179401
27316,35.687416,-79.616002,-79.423342,35.728261,Chatham Hospital,11.195867187
27317,35.838808,-79.797691,-79.814838,35.711607,Randolph Hospital,8.8244061394
27320,36.341886,-79.64371,-79.666282,36.354475,Annie Penn Hospital,1.5295697325
27323,36.3547,-79.6644,-79.666282,36.354475,Annie Penn Hospital,0.1061282158
27325,35.457928,-79.551779,-79.453529,35.209543,Pinehurst Medical Clinic Endoscopy Center,18.004369322
27326,36.445874,-79.549546,-79.666282,36.354475,Annie Penn Hospital,9.0604460119
27330,35.51048,-79.199727,-79.188794,35.468961,Central Carolina Hospital,2.9286089805
27331,35.4797,-79.1809,-79.188794,35.468961,Central Carolina Hospital,0.8640760057
27332,35.365704,-79.148242,-79.190041,35.464606,Mid Carolina Gasttroenterology Associates,7.2163872579
27340,35.9472,-79.322,-79.494951,36.063006,Pioneer Surgery Center,12.557667771
27341,35.521479,-79.696354,-79.824267,35.706290,Asheboro Endoscopy Center,14.638580377
27342,36.07554,-79.630273,-79.502537,36.063690,Alamance Regional Medical Center,7.1981961884
27343,36.494574,-79.092734,-78.594532,36.325957,Granville Medical Center,30.108768533
27344,35.717116,-79.440848,-79.423342,35.728261,Chatham Hospital,1.2488848927
27349,35.897854,-79.400424,-79.423342,35.728261,Chatham Hospital,11.765650061
27350,35.797443,-79.896332,-79.824267,35.706290,Asheboro Endoscopy Center,7.47803967
27351,35.6676,-80.2672,-80.287397,35.802946,Lexington Memorial Hospital / Wake Forest Baptist Health,9.4020725364
27355,35.796228,-79.56882,-79.423342,35.728261,Chatham Hospital,9.4246150515
27356,35.43541,-79.796564,-79.824267,35.706290,Asheboro Endoscopy Center,18.744039267
27357,36.26935,-79.972774,-79.798422,36.141827,HEALTHSOUTH Greensboro Specialty Surgical Center,13.126423051
27358,36.22888,-79.87233,-79.798422,36.141827,HEALTHSOUTH Greensboro Specialty Surgical Center,7.2879537548
27359,36.0211,-79.3614,-79.494951,36.063006,Pioneer Surgery Center,8.01870007
27360,35.863779,-80.101318,-80.110222,35.881635,Thomasville Medical Center,1.3289007783
27361,35.8825,-80.0824,-80.110222,35.881635,Thomasville Medical Center,1.5625210544
27370,35.803155,-79.981124,-80.110222,35.881635,Thomasville Medical Center,9.0461069949
27371,35.431521,-79.953804,-80.194304,35.362616,Stanly Regional Medical Center,14.386016602
27373,36.0101,-80.1394,-80.016582,35.961258,High Point Endoscopy Center,7.6634765509
27374,35.9029,-80.2573,-80.287397,35.802946,Lexington Memorial Hospital / Wake Forest Baptist Health,7.096884009
27375,36.4,-79.7732,-79.740136,36.493298,Morehead Memorial Hospital,6.6929975252
27376,35.251594,-79.533942,-79.458375,35.206350,Montgomery Memorial / FirstHealth Moore Regional,5.2925827969
27377,36.037424,-79.607189,-79.502537,36.063690,Alamance Regional Medical Center,6.1341840914
27379,36.385034,-79.345745,-79.666282,36.354475,Annie Penn Hospital,18.001525828
27401,36.071916,-79.769346,-79.784290,36.087891,Eagle Endoscopy Center,1.3833076118
27402,36.0726,-79.7925,-79.784290,36.087891,Eagle Endoscopy Center,1.1503081731
27403,36.061556,-79.823444,-79.826388,36.081803,Wesley Long Community Hospital,1.4059742076
27404,36.0726,-79.7925,-79.784290,36.087891,Eagle Endoscopy Center,1.1503081731
27405,36.115362,-79.738186,-79.778773,36.096318,Guilford Endoscopy Center,2.6236967547
27406,35.991318,-79.761739,-79.784290,36.087891,Eagle Endoscopy Center,6.7785731401
27407,36.006178,-79.872066,-79.826388,36.081803,Wesley Long Community Hospital,5.8089082722
27408,36.102377,-79.815407,-79.824110,36.083319,Greensboro Center for Digestive Diseases / LeBaurer Endoscopy Center,1.4016552765
27409,36.105506,-79.936434,-79.826388,36.081803,Wesley Long Community Hospital,6.3725720514
27410,36.11,-79.895031,-79.826388,36.081803,Wesley Long Community Hospital,4.305967715
27411,36.078398,-79.770908,-79.784290,36.087891,Eagle Endoscopy Center,0.9948525732
27412,36.0726,-79.7925,-79.784290,36.087891,Eagle Endoscopy Center,1.1503081731
27413,36.06992,-79.81084,-79.824110,36.083319,Greensboro Center for Digestive Diseases / LeBaurer Endoscopy Center,1.1856280983
27415,36.0726,-79.7925,-79.784290,36.087891,Eagle Endoscopy Center,1.1503081731
27416,36.0726,-79.7925,-79.784290,36.087891,Eagle Endoscopy Center,1.1503081731
27417,36.0726,-79.7925,-79.784290,36.087891,Eagle Endoscopy Center,1.1503081731
27419,36.0726,-79.7925,-79.784290,36.087891,Eagle Endoscopy Center,1.1503081731
27420,36.0726,-79.7925,-79.784290,36.087891,Eagle Endoscopy Center,1.1503081731
27425,36.0728,-79.7939,-79.784290,36.087891,Eagle Endoscopy Center,1.1715339484
27427,36.0726,-79.7925,-79.784290,36.087891,Eagle Endoscopy Center,1.1503081731
27429,36.0726,-79.7925,-79.784290,36.087891,Eagle Endoscopy Center,1.1503081731
27435,36.0726,-79.7925,-79.784290,36.087891,Eagle Endoscopy Center,1.1503081731
27438,36.0726,-79.7925,-79.784290,36.087891,Eagle Endoscopy Center,1.1503081731
27455,36.18243,-79.80822,-79.798422,36.141827,HEALTHSOUTH Greensboro Specialty Surgical Center,2.8532236359
27495,36.0444,-79.8596,-79.826388,36.081803,Wesley Long Community Hospital,3.1798514442
27497,36.0706,-79.7662,-79.784290,36.087891,Eagle Endoscopy Center,1.5644292185
27498,36.0726,-79.7925,-79.784290,36.087891,Eagle Endoscopy Center,1.1503081731
27499,36.0726,-79.7925,-79.784290,36.087891,Eagle Endoscopy Center,1.1503081731
27501,35.480986,-78.692003,-78.669739,35.327385,"Good Hope Hospital - Inc",10.665820538
27502,35.711544,-78.9187,-78.808641,35.754831,Raleigh Endoscopy Center - Cary,6.8704250838
27503,36.151666,-78.883758,-78.898765,36.040251,Davis Ambulatory,7.7292377311
27504,35.417557,-78.498316,-78.618775,35.313149,"Kurt G. Vernon - M.D.",9.9057114294
27505,35.417365,-78.996082,-79.190041,35.464606,Mid Carolina Gasttroenterology Associates,11.41955355
27506,35.407016,-78.739058,-78.669739,35.327385,"Good Hope Hospital - Inc",6.7438058753
27507,36.495826,-78.554822,-78.594532,36.325957,Granville Medical Center,11.922523858
27508,35.959052,-78.247241,-78.294053,36.112408,Franklin Regional Medical Center,10.895908064
27509,36.129644,-78.766572,-78.898765,36.040251,Davis Ambulatory,9.6312338676
27510,35.910972,-79.082087,-79.052089,35.903608,University of North Carolina Hospital,1.7579137025
27511,35.759644,-78.779491,-78.779984,35.740241,WakeMed Cary Hospital,1.3382905029
27512,35.7917,-78.7816,-78.808641,35.754831,Raleigh Endoscopy Center - Cary,2.9619725539
27513,35.803578,-78.79569,-78.808641,35.754831,Raleigh Endoscopy Center - Cary,3.4394159927
27514,35.967136,-79.040886,-79.052089,35.903608,University of North Carolina Hospital,4.4257612102
27515,35.9131,-79.0563,-79.052089,35.903608,University of North Carolina Hospital,0.6958997571
27516,35.922166,-79.160724,-79.052089,35.903608,University of North Carolina Hospital,6.2272005041
27517,35.841038,-79.02982,-79.052089,35.903608,University of North Carolina Hospital,4.4922130495
27518,35.73379,-78.77135,-78.779984,35.740241,WakeMed Cary Hospital,0.658430168
27519,35.813926,-78.882067,-78.808641,35.754831,Raleigh Endoscopy Center - Cary,5.7990097339
27520,35.614603,-78.457851,-78.334167,35.513067,Johnston Memorial Hospital,9.8786026193
27521,35.419231,-78.661155,-78.669739,35.327385,"Good Hope Hospital - Inc",6.3517026177
27522,36.105278,-78.681791,-78.897442,36.037674,Durham Regional Hospital,12.94240052
27523,35.79427,-78.918739,-78.808641,35.754831,Raleigh Endoscopy Center - Cary,6.7584470845
27524,35.418054,-78.369767,-78.334167,35.513067,Johnston Memorial Hospital,6.8525465367
27525,36.116257,-78.472552,-78.294053,36.112408,Franklin Regional Medical Center,9.9916326742
27526,35.5435,-78.832778,-78.779984,35.740241,WakeMed Cary Hospital,13.888397999
27527,35.640522,-78.37852,-78.334167,35.513067,Johnston Memorial Hospital,9.137135605
27528,35.6462,-78.4517,-78.334167,35.513067,Johnston Memorial Hospital,11.318886073
27529,35.646575,-78.5757,-78.588742,35.786371,WakeMed Raleigh Campus,9.6679422248
27530,35.370014,-78.1093,-77.953538,35.401633,Goldsboro Endoscopy Center,9.0618202732
27531,35.344447,-77.965928,-77.953246,35.400761,Wayne Memorial Hospital,3.948595195
27532,35.3849,-77.9931,-77.953246,35.400761,Wayne Memorial Hospital,2.501995644
27533,35.3849,-77.9931,-77.953246,35.400761,Wayne Memorial Hospital,2.501995644
27534,35.360718,-77.902523,-77.953246,35.400761,Wayne Memorial Hospital,3.9785447515
27536,36.321797,-78.41235,-78.447969,36.330472,Maria Parham Hospital,2.075817939
27537,36.371868,-78.379098,-78.447969,36.330472,Maria Parham Hospital,4.7867039265
27539,35.683338,-78.813264,-78.779984,35.740241,WakeMed Cary Hospital,4.3474550851
27540,35.604561,-78.861222,-78.779984,35.740241,WakeMed Cary Hospital,10.41311679
27541,36.263087,-79.073615,-78.898765,36.040251,Davis Ambulatory,18.215209256
27542,35.612938,-78.150546,-78.334167,35.513067,Johnston Memorial Hospital,12.428518441
27543,35.3968,-78.8094,-78.669739,35.327385,"Good Hope Hospital - Inc",9.2272571678
27544,36.199648,-78.45392,-78.447969,36.330472,Maria Parham Hospital,9.0283346626
27545,35.791996,-78.475758,-78.588742,35.786371,WakeMed Raleigh Campus,6.3599427755
27546,35.345167,-78.868212,-78.669739,35.327385,"Good Hope Hospital - Inc",11.281125195
27549,36.082942,-78.212862,-78.294053,36.112408,Franklin Regional Medical Center,4.977749863
27551,36.410308,-78.051264,-77.648553,36.434252,Halifax Regional Medical Center,22.506478262
27552,35.4167,-78.9339,-79.190041,35.464606,Mid Carolina Gasttroenterology Associates,14.826738491
27553,36.469223,-78.300888,-78.447969,36.330472,Maria Parham Hospital,12.602018495
27555,35.56302,-78.201716,-78.334167,35.513067,Johnston Memorial Hospital,8.2215843165
27556,36.4007,-78.3248,-78.447969,36.330472,Maria Parham Hospital,8.4056616615
27557,35.787673,-78.203331,-77.946287,35.766007,Carolina Gastroenterology Specialists,14.52153037
27559,35.614786,-79.063347,-79.188794,35.468961,Central Carolina Hospital,12.292288103
27560,35.861991,-78.818149,-78.793261,35.900152,Duke GI at Brier Creek,2.9792843343
27562,35.641473,-78.967191,-78.808641,35.754831,Raleigh Endoscopy Center - Cary,11.859283723
27563,36.48813,-78.190525,-78.447969,36.330472,Maria Parham Hospital,18.005242631
27565,36.350442,-78.648391,-78.594532,36.325957,Granville Medical Center,3.4470902206
27568,35.512002,-78.239157,-78.334167,35.513067,Johnston Memorial Hospital,5.3571595488
27569,35.43251,-78.165607,-78.334167,35.513067,Johnston Memorial Hospital,11.011802951
27570,36.457338,-78.238143,-78.447969,36.330472,Maria Parham Hospital,14.609103486
27571,35.92001,-78.457368,-78.606016,35.897205,GastroIntestinal Healthcare,8.4863906229
27572,36.252422,-78.894862,-78.898765,36.040251,Davis Ambulatory,14.633609993
27573,36.410992,-78.976852,-78.594532,36.325957,Granville Medical Center,22.11570325
27574,36.416324,-78.939927,-78.594532,36.325957,Granville Medical Center,20.246863502
27576,35.58806,-78.251706,-78.334167,35.513067,Johnston Memorial Hospital,6.952400429
27577,35.480752,-78.349111,-78.334167,35.513067,Johnston Memorial Hospital,2.3823278131
27581,36.208327,-78.732405,-78.594532,36.325957,Granville Medical Center,11.18468657
27582,36.451952,-78.572756,-78.594532,36.325957,Granville Medical Center,8.773794289
27583,36.298946,-78.925316,-78.898765,36.040251,Davis Ambulatory,17.902160657
27584,36.519456,-78.44137,-78.447969,36.330472,Maria Parham Hospital,13.038729851
27586,36.4264,-78.0037,-77.648553,36.434252,Halifax Regional Medical Center,19.800119703
27587,35.981296,-78.550181,-78.606016,35.897205,GastroIntestinal Healthcare,6.590353501
27588,35.9798,-78.5102,-78.606016,35.897205,GastroIntestinal Healthcare,7.8304457051
27589,36.324908,-78.135612,-78.294053,36.112408,Franklin Regional Medical Center,17.121846145
27591,35.783706,-78.390286,-78.588742,35.786371,WakeMed Raleigh Campus,11.152512365
27592,35.565346,-78.66091,-78.762068,35.742134,Center for Digestive Diseases and Cary Endoscopy Center,13.454750265
27593,35.5829,-78.3549,-78.334167,35.513067,Johnston Memorial Hospital,4.9551474671
27594,36.4865,-78.1714,-78.447969,36.330472,Maria Parham Hospital,18.801591831
27596,36.002084,-78.444731,-78.294053,36.112408,Franklin Regional Medical Center,11.36111245
27597,35.820692,-78.323718,-78.588742,35.786371,WakeMed Raleigh Campus,15.074867947
27599,35.9134,-79.0561,-79.052089,35.903608,University of North Carolina Hospital,0.7117671171
27601,35.775211,-78.634324,-78.588742,35.786371,WakeMed Raleigh Campus,2.6744500877
27602,35.7719,-78.6388,-78.588742,35.786371,WakeMed Raleigh Campus,2.9846695263
27603,35.683682,-78.664144,-78.762068,35.742134,Center for Digestive Diseases and Cary Endoscopy Center,6.824667764
27604,35.816936,-78.563843,-78.588742,35.786371,WakeMed Raleigh Campus,2.5296378292
27605,35.790371,-78.652752,-78.616377,35.816794,Triangle Gastroenterology,2.7377969346
27606,35.737593,-78.721192,-78.762068,35.742134,Center for Digestive Diseases and Cary Endoscopy Center,2.3193077986
27607,35.818811,-78.71404,-78.706696,35.815667,Raleigh Medical Group,0.4659922413
27608,35.809159,-78.645188,-78.616377,35.816794,Triangle Gastroenterology,1.7017824407
27609,35.842711,-78.63185,-78.619436,35.829014,Duke Health Raleigh Hospital,1.1739163117
27610,35.743602,-78.536408,-78.588742,35.786371,WakeMed Raleigh Campus,4.1653004419
27611,35.7746,-78.6403,-78.588742,35.786371,WakeMed Raleigh Campus,3.008710373
27612,35.851876,-78.702013,-78.704100,35.815555,Rex Hospital,2.5074202088
27613,35.923982,-78.716682,-78.659861,35.894657,Raleigh Endoscopy Center - North,3.7750686928
27614,35.94882,-78.613315,-78.606016,35.897205,GastroIntestinal Healthcare,3.582868834
27615,35.902182,-78.627742,-78.606016,35.897205,GastroIntestinal Healthcare,1.2663973687
27616,35.870606,-78.533618,-78.606016,35.897205,GastroIntestinal Healthcare,4.4577793919
27617,35.904084,-78.768873,-78.793261,35.900152,Duke GI at Brier Creek,1.394927139
27619,35.7719,-78.6388,-78.588742,35.786371,WakeMed Raleigh Campus,2.9846695263
27620,35.7719,-78.6388,-78.588742,35.786371,WakeMed Raleigh Campus,2.9846695263
27621,35.7719,-78.6388,-78.588742,35.786371,WakeMed Raleigh Campus,2.9846695263
27622,35.7719,-78.6388,-78.588742,35.786371,WakeMed Raleigh Campus,2.9846695263
27623,35.872317,-78.798618,-78.793261,35.900152,Duke GI at Brier Creek,1.9429041042
27624,35.7719,-78.6388,-78.588742,35.786371,WakeMed Raleigh Campus,2.9846695263
27625,35.7719,-78.6388,-78.588742,35.786371,WakeMed Raleigh Campus,2.9846695263
27626,35.7719,-78.6388,-78.588742,35.786371,WakeMed Raleigh Campus,2.9846695263
27627,35.7719,-78.6388,-78.588742,35.786371,WakeMed Raleigh Campus,2.9846695263
27628,35.7719,-78.6388,-78.588742,35.786371,WakeMed Raleigh Campus,2.9846695263
27629,35.7719,-78.6388,-78.588742,35.786371,WakeMed Raleigh Campus,2.9846695263
27634,35.7719,-78.6388,-78.588742,35.786371,WakeMed Raleigh Campus,2.9846695263
27635,35.7719,-78.6388,-78.588742,35.786371,WakeMed Raleigh Campus,2.9846695263
27636,35.7719,-78.6388,-78.588742,35.786371,WakeMed Raleigh Campus,2.9846695263
27640,35.7719,-78.6388,-78.588742,35.786371,WakeMed Raleigh Campus,2.9846695263
27650,35.7719,-78.6388,-78.588742,35.786371,WakeMed Raleigh Campus,2.9846695263
27656,35.7719,-78.6388,-78.588742,35.786371,WakeMed Raleigh Campus,2.9846695263
27658,35.7719,-78.6388,-78.588742,35.786371,WakeMed Raleigh Campus,2.9846695263
27661,35.8973,-78.5696,-78.606016,35.897205,GastroIntestinal Healthcare,2.0433011694
27668,35.7719,-78.6388,-78.588742,35.786371,WakeMed Raleigh Campus,2.9846695263
27675,35.7719,-78.6388,-78.588742,35.786371,WakeMed Raleigh Campus,2.9846695263
27676,35.90672,-78.749038,-78.793261,35.900152,Duke GI at Brier Creek,2.5221484507
27690,35.7719,-78.6388,-78.588742,35.786371,WakeMed Raleigh Campus,2.9846695263
27695,35.814801,-78.720216,-78.707705,35.813791,Raleigh Endoscopy Center,0.7061632232
27697,35.7719,-78.6388,-78.588742,35.786371,WakeMed Raleigh Campus,2.9846695263
27698,35.7719,-78.6388,-78.588742,35.786371,WakeMed Raleigh Campus,2.9846695263
27699,35.7719,-78.6388,-78.588742,35.786371,WakeMed Raleigh Campus,2.9846695263
27701,35.995918,-78.902135,-78.935258,36.004745,Duke South / Duke Clinic at Duke University Hospital,1.9533636798
27702,35.9939,-78.8986,-78.935258,36.004745,Duke South / Duke Clinic at Duke University Hospital,2.1861182114
27703,35.946905,-78.794098,-78.793261,35.900152,Duke GI at Brier Creek,3.2244561052
27704,36.039046,-78.831844,-78.897442,36.037674,Durham Regional Hospital,3.6753583914
27705,36.033619,-78.982388,-78.935258,36.004745,Duke South / Duke Clinic at Duke University Hospital,3.3070632884
27706,35.993193,-78.94173,-78.935258,36.004745,Duke South / Duke Clinic at Duke University Hospital,0.8752909362
27707,35.948152,-78.955534,-78.931829,35.910010,Triangle Endoscopy Center,2.9472291821
27708,36.0073,-78.9206,-78.935258,36.004745,Duke South / Duke Clinic at Duke University Hospital,0.8400164416
27709,35.913747,-78.86333,-78.931829,35.910010,Triangle Endoscopy Center,3.85138233
27710,35.9939,-78.8986,-78.935258,36.004745,Duke South / Duke Clinic at Duke University Hospital,2.1861182114
27711,35.9939,-78.8986,-78.935258,36.004745,Duke South / Duke Clinic at Duke University Hospital,2.1861182114
27712,36.091772,-78.899662,-78.898765,36.040251,Davis Ambulatory,3.5533578965
27713,35.885691,-78.929493,-78.931829,35.910010,Triangle Endoscopy Center,1.6821595255
27715,35.9939,-78.8986,-78.935258,36.004745,Duke South / Duke Clinic at Duke University Hospital,2.1861182114
27717,35.9939,-78.8986,-78.935258,36.004745,Duke South / Duke Clinic at Duke University Hospital,2.1861182114
27722,35.9939,-78.8986,-78.935258,36.004745,Duke South / Duke Clinic at Duke University Hospital,2.1861182114
27801,35.918873,-77.731863,-77.848356,35.973064,Nash General Hospital,7.5257933027
27802,35.9396,-77.8008,-77.848356,35.973064,Nash General Hospital,3.5263358616
27803,35.898918,-77.85835,-77.848356,35.973064,Nash General Hospital,5.1437898571
27804,35.987256,-77.848535,-77.844292,35.978829,Boice-Willis Clinic Endoscopy Center,0.6279143091
27805,36.195198,-77.092004,-76.994099,36.285103,Roanoke-Chowan Hospital,8.2679914037
27806,35.307614,-76.773972,-77.066269,35.111960,CarolinaEast Medical Center /Craven Regional Medical Center,21.345170954
27807,35.801956,-78.082737,-77.946287,35.766007,Carolina Gastroenterology Specialists,8.0578700776
27808,35.473271,-76.760011,-77.039030,35.548802,Beaufort County Hospital,16.571116925
27809,36.025296,-77.777548,-77.844292,35.978829,Boice-Willis Clinic Endoscopy Center,4.9250695943
27810,35.513521,-76.596484,-77.039030,35.548802,Beaufort County Hospital,25.063277531
27811,35.5857,-77.5171,-77.408247,35.600773,Atlantic Gastroenterology Endoscopy Center,6.2184554221
27812,35.756616,-77.38589,-77.401127,35.610322,East Carolina Endoscopy Center,10.124472581
27813,35.633466,-77.932404,-77.949711,35.717193,Wilson Digestive Diseases Center,5.8551694918
27814,35.38522,-76.926138,-77.039030,35.548802,Beaufort County Hospital,12.953453482
27815,35.8979,-77.7935,-77.848356,35.973064,Nash General Hospital,6.0275983948
27816,36.109878,-78.081243,-78.294053,36.112408,Franklin Regional Medical Center,11.909774558
27817,35.442511,-77.075544,-77.039030,35.548802,Beaufort County Hospital,7.6131114225
27818,36.488704,-77.033813,-76.994099,36.285103,Roanoke-Chowan Hospital,14.215091046
27819,35.832482,-77.441263,-77.556981,35.921747,Heitage Hospital,8.9482946288
27820,36.416396,-77.256976,-76.994099,36.285103,Roanoke-Chowan Hospital,17.235420214
27821,35.345609,-76.86055,-77.039030,35.548802,Beaufort County Hospital,17.255000571
27822,35.810364,-77.864902,-77.946287,35.766007,Carolina Gastroenterology Specialists,5.5014844942
27823,36.196945,-77.719464,-77.844292,35.978829,Boice-Willis Clinic Endoscopy Center,16.585462624
27824,35.524618,-76.050433,-75.616936,35.940726,The Outer Banks Hospital,37.648637906
27825,35.8347,-77.1737,-77.072726,35.840816,Martin General Hospital,5.6855212506
27826,35.599023,-76.260656,-76.609600,36.071153,Chowan Hospital,37.999364431
27827,35.701452,-77.503171,-77.401127,35.610322,East Carolina Endoscopy Center,8.5130358532
27828,35.585317,-77.568367,-77.408247,35.600773,Atlantic Gastroenterology Endoscopy Center,9.0812895401
27829,35.690419,-77.636238,-77.405938,35.605130,Carolina Digestive Diseases,14.234313594
27830,35.54859,-77.957656,-77.953538,35.401633,Goldsboro Endoscopy Center,10.136146225
27831,36.478206,-77.535078,-77.648553,36.434252,Halifax Regional Medical Center,7.0111778848
27832,36.512044,-77.717634,-77.648553,36.434252,Halifax Regional Medical Center,6.6022666308
27833,35.6116,-77.3732,-77.401127,35.610322,East Carolina Endoscopy Center,1.5750654498
27834,35.6631,-77.369092,-77.401127,35.610322,East Carolina Endoscopy Center,4.0617102176
27835,35.6112,-77.3731,-77.401127,35.610322,East Carolina Endoscopy Center,1.5793940082
27836,35.6112,-77.3731,-77.401127,35.610322,East Carolina Endoscopy Center,1.5793940082
27837,35.513026,-77.201504,-77.039030,35.548802,Beaufort County Hospital,9.4846322982
27839,36.288649,-77.559248,-77.648553,36.434252,Halifax Regional Medical Center,11.209312576
27840,35.950164,-77.230225,-77.072726,35.840816,Martin General Hospital,11.61729386
27841,35.909221,-77.27697,-77.072726,35.840816,Martin General Hospital,12.39591087
27842,36.521242,-77.854275,-77.648553,36.434252,Halifax Regional Medical Center,12.933750788
27843,36.012356,-77.443016,-77.555189,35.924217,Tarboro Clinic,8.745717201
27844,36.251473,-77.932841,-77.844292,35.978829,Boice-Willis Clinic Endoscopy Center,19.444180838
27845,36.373692,-77.443846,-77.648553,36.434252,Halifax Regional Medical Center,12.152637786
27846,35.772772,-76.884616,-77.072726,35.840816,Martin General Hospital,11.561760799
27847,36.186671,-77.181039,-76.994099,36.285103,Roanoke-Chowan Hospital,12.456478554
27849,36.064772,-77.203161,-77.072726,35.840816,Martin General Hospital,17.088345919
27850,36.41099,-77.880562,-77.648553,36.434252,Halifax Regional Medical Center,13.030521593
27851,35.638997,-78.030994,-77.949711,35.717193,Wilson Digestive Diseases Center,7.0704409256
27852,35.786528,-77.644312,-77.556981,35.921747,Heitage Hospital,10.535021448
27853,36.501807,-77.294176,-77.648553,36.434252,Halifax Regional Medical Center,20.282602837
27855,36.420116,-77.065312,-76.994099,36.285103,Roanoke-Chowan Hospital,10.123330857
27856,36.020452,-77.998174,-77.848356,35.973064,Nash General Hospital,9.0092935207
27857,35.975238,-77.307596,-77.555189,35.924217,Tarboro Clinic,14.322095997
27858,35.523838,-77.288253,-77.406194,35.597618,Quadrangle Endoscopy Center,8.3693934798
27860,35.623305,-76.718936,-77.039030,35.548802,Beaufort County Hospital,18.748038029
27861,35.8205,-77.3109,-77.072726,35.840816,Martin General Hospital,13.448224688
27862,36.492412,-77.190738,-76.994099,36.285103,Roanoke-Chowan Hospital,18.017684145
27863,35.486124,-77.974478,-77.953538,35.401633,Goldsboro Endoscopy Center,5.9446975827
27864,35.815424,-77.666588,-77.556981,35.921747,Heitage Hospital,9.5712371024
27865,35.598816,-76.812706,-77.039030,35.548802,Beaufort County Hospital,13.208613629
27866,36.508688,-77.483945,-77.648553,36.434252,Halifax Regional Medical Center,10.50825523
27867,36.3632,-77.2395,-76.994099,36.285103,Roanoke-Chowan Hospital,14.716089838
27868,36.0384,-77.9068,-77.844292,35.978829,Boice-Willis Clinic Endoscopy Center,5.3984503899
27869,36.265792,-77.33751,-76.994099,36.285103,Roanoke-Chowan Hospital,19.222791287
27870,36.414812,-77.714025,-77.648553,36.434252,Halifax Regional Medical Center,3.8875949973
27871,35.815464,-77.261866,-77.072726,35.840816,Martin General Hospital,10.76471634
27872,36.189308,-77.248841,-76.994099,36.285103,Roanoke-Chowan Hospital,15.690702816
27873,35.653671,-77.775303,-77.943539,35.720606,Wilson Medical Center,10.530068895
27874,36.128394,-77.402533,-77.555189,35.924217,Tarboro Clinic,16.473821256
27875,35.5384,-76.453714,-77.039030,35.548802,Beaufort County Hospital,32.995102196
27876,36.488374,-77.39631,-77.648553,36.434252,Halifax Regional Medical Center,14.539470345
27877,36.509969,-77.174996,-76.994099,36.285103,Roanoke-Chowan Hospital,18.499331901
27878,35.865594,-77.83036,-77.848356,35.973064,Nash General Hospital,7.4796223999
27879,35.5749,-77.2806,-77.400927,35.605867,Piit County Memorial Hospital,7.1059117549
27880,35.738707,-78.107894,-77.949711,35.717193,Wilson Digestive Diseases Center,9.0173380026
27881,35.9679,-77.4458,-77.555189,35.924217,Tarboro Clinic,6.8337960686
27882,35.949475,-78.114722,-77.848356,35.973064,Nash General Hospital,15.022005314
27883,35.61021,-77.8062,-77.943539,35.720606,Wilson Medical Center,10.848103772
27884,35.71364,-77.273658,-77.401127,35.610322,East Carolina Endoscopy Center,10.110205498
27885,35.416114,-76.26658,-77.039030,35.548802,Beaufort County Hospital,44.517166813
27886,35.885969,-77.506034,-77.556981,35.921747,Heitage Hospital,3.7759427821
27887,36.2514,-77.4856,-77.648553,36.434252,Halifax Regional Medical Center,15.546161948
27888,35.589088,-77.727333,-77.943539,35.720606,Wilson Medical Center,15.176055875
27889,35.596535,-77.006273,-77.039030,35.548802,Beaufort County Hospital,3.773554338
27890,36.411282,-77.5906,-77.648553,36.434252,Halifax Regional Medical Center,3.5976483832
27891,36.10061,-77.768194,-77.844292,35.978829,Boice-Willis Clinic Endoscopy Center,9.4178940103
27892,35.806785,-77.057044,-77.072726,35.840816,Martin General Hospital,2.5065816762
27893,35.677489,-77.912469,-77.949711,35.717193,Wilson Digestive Diseases Center,3.4474128346
27894,35.7213,-77.9155,-77.943539,35.720606,Wilson Medical Center,1.5774668568
27895,35.7213,-77.9155,-77.943539,35.720606,Wilson Medical Center,1.5774668568
27896,35.799686,-77.97908,-77.946287,35.766007,Carolina Gastroenterology Specialists,2.9646615963
27897,36.31114,-77.198131,-76.994099,36.285103,Roanoke-Chowan Hospital,11.53084216
27906,36.3018,-76.2238,-76.219808,36.321337,Albermarle Hospital,1.3656699642
27907,36.3018,-76.2238,-76.219808,36.321337,Albermarle Hospital,1.3656699642
27909,36.317064,-76.27538,-76.219808,36.321337,Albermarle Hospital,3.1154641193
27910,36.296771,-77.018298,-76.994099,36.285103,Roanoke-Chowan Hospital,1.5725236553
27915,35.336764,-75.510004,-75.616936,35.940726,The Outer Banks Hospital,42.080332673
27916,36.313566,-75.911188,-76.219808,36.321337,Albermarle Hospital,17.232919681
27917,36.359834,-75.995817,-76.219808,36.321337,Albermarle Hospital,12.776503707
27919,36.307658,-76.513697,-76.219808,36.321337,Albermarle Hospital,16.430147908
27920,35.265382,-75.528516,-75.616936,35.940726,The Outer Banks Hospital,46.835089074
27921,36.355577,-76.163651,-76.219808,36.321337,Albermarle Hospital,3.9235339884
27922,36.312994,-76.850488,-76.994099,36.285103,Roanoke-Chowan Hospital,8.2445702875
27923,36.357036,-75.94273,-76.219808,36.321337,Albermarle Hospital,15.654689946
27924,36.164306,-76.844594,-76.994099,36.285103,Roanoke-Chowan Hospital,11.797834615
27925,35.797912,-76.206504,-76.609600,36.071153,Chowan Hospital,29.430038732
27926,36.496654,-76.590876,-76.219808,36.321337,Albermarle Hospital,23.960106681
27927,36.389418,-75.838035,-76.219808,36.321337,Albermarle Hospital,21.808464672
27928,35.81631,-76.471684,-76.609600,36.071153,Chowan Hospital,19.20064581
27929,36.431262,-75.997144,-76.219808,36.321337,Albermarle Hospital,14.549108697
27930,36.157,-76.3166,-76.219808,36.321337,Albermarle Hospital,12.557331053
27932,36.121265,-76.565424,-76.609600,36.071153,Chowan Hospital,4.2492464798
27935,36.424173,-76.858867,-76.994099,36.285103,Roanoke-Chowan Hospital,12.202414781
27936,35.241483,-75.617633,-75.616936,35.940726,The Outer Banks Hospital,48.217554985
27937,36.49286,-76.793062,-76.994099,36.285103,Roanoke-Chowan Hospital,18.192269936
27938,36.37796,-76.712822,-76.994099,36.285103,Roanoke-Chowan Hospital,16.951845318
27939,36.24389,-75.903803,-76.219808,36.321337,Albermarle Hospital,18.435269766
27941,36.118409,-75.83133,-75.616936,35.940726,The Outer Banks Hospital,17.157296992
27942,36.295528,-76.774504,-76.994099,36.285103,Roanoke-Chowan Hospital,12.2812657
27943,35.219386,-75.687242,-75.616936,35.940726,The Outer Banks Hospital,49.898604906
27944,36.184575,-76.391049,-76.219808,36.321337,Albermarle Hospital,13.433104482
27946,36.356374,-76.631518,-76.609600,36.071153,Chowan Hospital,19.708063688
27947,36.190701,-75.86037,-75.616936,35.940726,The Outer Banks Hospital,21.976205309
27948,36.044,-75.687078,-75.616936,35.940726,The Outer Banks Hospital,8.1347360661
27949,36.136112,-75.729414,-75.616936,35.940726,The Outer Banks Hospital,14.874214341
27950,36.51675,-76.017436,-76.219808,36.321337,Albermarle Hospital,17.574587828
27953,35.822866,-75.886176,-75.616936,35.940726,The Outer Banks Hospital,17.157142877
27954,35.895018,-75.670684,-75.616936,35.940726,The Outer Banks Hospital,4.3618387046
27956,36.400228,-76.002888,-76.219808,36.321337,Albermarle Hospital,13.266907752
27957,36.073224,-76.767058,-76.609600,36.071153,Chowan Hospital,8.8165965089
27958,36.467089,-76.158208,-76.219808,36.321337,Albermarle Hospital,10.622524424
27959,35.933658,-75.615685,-75.616936,35.940726,The Outer Banks Hospital,0.4924378838
27960,35.11232,-75.97622,-76.753660,34.724829,Carteret General Hospital,51.606373624
27962,35.813176,-76.753124,-77.072726,35.840816,Martin General Hospital,18.049516569
27964,36.085846,-75.800008,-75.616936,35.940726,The Outer Banks Hospital,14.330465327
27965,36.2666,-75.886029,-76.219808,36.321337,Albermarle Hospital,19.012848764
27966,36.147659,-75.838013,-75.616936,35.940726,The Outer Banks Hospital,18.893143728
27967,36.223521,-76.966643,-76.994099,36.285103,Roanoke-Chowan Hospital,4.5153787524
27968,35.671387,-75.496086,-75.616936,35.940726,The Outer Banks Hospital,19.775156955
27969,36.4614,-76.8125,-76.994099,36.285103,Roanoke-Chowan Hospital,15.824238816
27970,35.844008,-76.546798,-76.609600,36.071153,Chowan Hospital,16.055018291
27972,35.474875,-75.485005,-75.616936,35.940726,The Outer Banks Hospital,32.970033765
27973,36.358956,-76.086698,-76.219808,36.321337,Albermarle Hospital,7.8670390255
27974,36.261984,-76.008225,-76.219808,36.321337,Albermarle Hospital,12.501772085
27976,36.466228,-76.358719,-76.219808,36.321337,Albermarle Hospital,12.64280501
27978,35.774129,-75.831418,-75.616936,35.940726,The Outer Banks Hospital,16.64211625
27979,36.421411,-76.577336,-76.219808,36.321337,Albermarle Hospital,21.10106659
27980,36.247378,-76.63032,-76.609600,36.071153,Chowan Hospital,12.208174404
27981,35.839141,-75.639946,-75.616936,35.940726,The Outer Banks Hospital,7.12332359
27982,35.562896,-75.473837,-75.616936,35.940726,The Outer Banks Hospital,27.268070041
27983,35.99419,-76.942242,-77.072726,35.840816,Martin General Hospital,12.86248051
27985,36.215999,-76.480688,-76.609600,36.071153,Chowan Hospital,12.319716806
27986,36.396326,-76.936051,-76.994099,36.285103,Roanoke-Chowan Hospital,8.3262793261
28001,35.338477,-80.209994,-80.194304,35.362616,Stanly Regional Medical Center,1.8857773041
28002,35.3544,-80.1903,-80.194304,35.362616,Stanly Regional Medical Center,0.6100066618
28006,35.405054,-81.089852,-81.201510,35.488313,Lincoln Medical Center,8.5238315237
28007,35.106882,-80.102552,-80.075520,34.960882,Anson Community Hospital,10.182822775
28009,35.409755,-80.106605,-80.194304,35.362616,Stanly Regional Medical Center,5.9236498619
28010,35.7188,-80.8984,-80.876853,35.799414,Iredell Memorial Hospital,5.6894313832
28012,35.218354,-81.042952,-81.030765,35.249063,CaroMont Endoscopy Center,2.226889787
28016,35.327263,-81.288257,-81.356057,35.240952,Kings Mountain Hospital,7.0791282918
28017,35.255584,-81.649487,-81.537819,35.301502,Cleveland Regional Medical Center,7.0634240859
28018,35.467813,-81.791796,-81.965061,35.363523,Rutherford Hospital,12.139627068
28019,35.280566,-81.790526,-81.965061,35.363523,Rutherford Hospital,11.402119202
28020,35.530002,-81.635017,-81.657718,35.723482,Blue Ridge Digestive Center,13.402909963
28021,35.3991,-81.393842,-81.539428,35.304557,Cleveland Ambulatory Services (CAS),10.494783621
28023,35.575642,-80.59619,-80.583427,35.463257,Northeast Digestive Health Center,7.7829441435
28024,35.2381,-81.7701,-81.539428,35.304557,Cleveland Ambulatory Services (CAS),13.825544614
28025,35.378204,-80.524292,-80.603171,35.434617,Carolinas Medical Center (CMC)-NorthEast,5.9127955363
28026,35.4089,-80.5794,-80.603171,35.434617,Carolinas Medical Center (CMC)-NorthEast,2.2236972117
28027,35.419708,-80.675816,-80.603171,35.434617,Carolinas Medical Center (CMC)-NorthEast,4.2269725649
28031,35.470846,-80.886209,-80.864122,35.440077,Presbyterian Endoscopy Center of Huntersville,2.460571747
28032,35.234322,-81.079276,-81.030765,35.249063,CaroMont Endoscopy Center,2.9263927409
28033,35.417208,-81.33654,-81.201510,35.488313,Lincoln Medical Center,9.0599841243
28034,35.351626,-81.183724,-81.138724,35.275053,Gaston Memorial Hospital,5.8606174074
28035,35.5095,-80.8433,-80.851530,35.547783,Lake Norman Regional Medical Center,2.680297626
28036,35.483306,-80.797854,-80.864122,35.440077,Presbyterian Endoscopy Center of Huntersville,4.781447786
28037,35.507274,-81.037174,-81.201510,35.488313,Lincoln Medical Center,9.3587235089
28038,35.19993,-81.543914,-81.537819,35.301502,Cleveland Regional Medical Center,7.0121609814
28039,35.6818,-80.4328,-80.471419,35.681738,Rowan Regional Medical Center,2.1727618325
28040,35.391915,-81.756021,-81.965061,35.363523,Rutherford Hospital,11.966557465
28041,35.5867,-80.4633,-80.471419,35.681738,Rowan Regional Medical Center,6.569478906
28042,35.4288,-81.5019,-81.539428,35.304557,Cleveland Ambulatory Services (CAS),8.8254003284
28043,35.309842,-81.870287,-81.965061,35.363523,Rutherford Hospital,6.5097587108
28052,35.229809,-81.242912,-81.356057,35.240952,Kings Mountain Hospital,6.4469026167
28053,35.2616,-81.1875,-81.138724,35.275053,Gaston Memorial Hospital,2.9100943046
28054,35.261904,-81.149754,-81.138724,35.275053,Gaston Memorial Hospital,1.1004997323
28055,35.2616,-81.1875,-81.138724,35.275053,Gaston Memorial Hospital,2.9100943046
28056,35.244282,-81.125253,-81.138724,35.275053,Gaston Memorial Hospital,2.2543899824
28070,35.4108,-80.8434,-80.861274,35.407662,Presbyterian Hospital Huntersville,1.0319638986
28071,35.510274,-80.320814,-80.194304,35.362616,Stanly Regional Medical Center,12.435367769
28072,35.616452,-80.444174,-80.471419,35.681738,Rowan Regional Medical Center,4.7559556691
28073,35.205958,-81.475715,-81.356057,35.240952,Kings Mountain Hospital,7.1875296121
28074,35.2425,-81.8753,-81.965061,35.363523,Rutherford Hospital,9.7663726333
28075,35.298868,-80.647537,-80.748025,35.307809,Carolinas Medical Center - University,5.7135231422
28076,35.25135,-81.779506,-81.965061,35.363523,Rutherford Hospital,13.031744764
28077,35.403708,-81.203004,-81.201510,35.488313,Lincoln Medical Center,5.8345557497
28078,35.400197,-80.866352,-80.865963,35.398019,Charlotte Gastroenterology & Hepatology (John J. Delaney Drive),0.1517804476
28079,35.111471,-80.609882,-80.662122,35.169946,Presbyterian Mint Hill,5.0011106437
28080,35.455008,-81.108086,-81.201510,35.488313,Lincoln Medical Center,5.7485729988
28081,35.499715,-80.676534,-80.591250,35.454296,Gateway Ambulatory Surgery Center,5.7401118518
28082,35.4874,-80.6218,-80.583427,35.463257,Northeast Digestive Health Center,2.7306474737
28083,35.493983,-80.575249,-80.583427,35.463257,Northeast Digestive Health Center,2.168356277
28086,35.25654,-81.369912,-81.356057,35.240952,Kings Mountain Hospital,1.3302050686
28088,35.545676,-80.614461,-80.583427,35.463257,Northeast Digestive Health Center,5.9465581998
28089,35.316683,-81.667995,-81.539428,35.304557,Cleveland Ambulatory Services (CAS),7.3146457202
28090,35.476318,-81.571832,-81.539428,35.304557,Cleveland Ambulatory Services (CAS),11.984187323
28091,34.990347,-79.963184,-80.075520,34.960882,Anson Community Hospital,6.6912555603
28092,35.480518,-81.250199,-81.201510,35.488313,Lincoln Medical Center,2.7981501546
28093,35.4736,-81.2547,-81.201510,35.488313,Lincoln Medical Center,3.1669270115
28097,35.294434,-80.402291,-80.194304,35.362616,Stanly Regional Medical Center,12.658427684
28098,35.271061,-81.099142,-81.138724,35.275053,Gaston Memorial Hospital,2.2550996332
28101,35.256762,-81.079574,-81.030765,35.249063,CaroMont Endoscopy Center,2.8112567732
28102,34.824542,-79.960128,-80.075520,34.960882,Anson Community Hospital,11.460469107
28103,35.005014,-80.35865,-80.522368,34.973825,Union Regional Medical Center,9.5355477253
28104,35.074212,-80.686885,-80.713937,35.121801,Presbyterian Matthews,3.6217517654
28105,35.110446,-80.708955,-80.713937,35.121801,Presbyterian Matthews,0.8322672796
28106,35.1169,-80.7237,-80.713937,35.121801,Presbyterian Matthews,0.6481707565
28107,35.245767,-80.523064,-80.662122,35.169946,Presbyterian Mint Hill,9.4478969697
28108,34.9379,-80.6688,-80.527051,34.969472,Carolina Endoscopy Center - Monroe,8.3360468092
28109,35.486712,-80.287975,-80.194304,35.362616,Stanly Regional Medical Center,10.058530626
28110,35.070306,-80.529505,-80.522368,34.973825,Union Regional Medical Center,6.664696334
28111,34.9853,-80.5498,-80.527051,34.969472,Carolina Endoscopy Center - Monroe,1.6905040765
28112,34.901772,-80.538084,-80.527051,34.969472,Carolina Endoscopy Center - Monroe,4.7097161778
28114,35.256957,-81.733427,-81.539428,35.304557,Cleveland Ambulatory Services (CAS),11.449515962
28115,35.588778,-80.762717,-80.851530,35.547783,Lake Norman Regional Medical Center,5.7471105305
28117,35.571472,-80.895998,-80.851530,35.547783,Lake Norman Regional Medical Center,2.9910814898
28119,34.86325,-80.013399,-80.075520,34.960882,Anson Community Hospital,7.6002280023
28120,35.323088,-81.016616,-81.030765,35.249063,CaroMont Endoscopy Center,5.1665713695
28123,35.5432,-80.8475,-80.851530,35.547783,Lake Norman Regional Medical Center,0.3891727179
28124,35.391344,-80.409069,-80.583427,35.463257,Northeast Digestive Health Center,11.01943464
28125,35.660354,-80.710404,-80.851530,35.547783,Lake Norman Regional Medical Center,11.109543539
28126,35.2795,-80.7358,-80.749538,35.305831,Endoscopy Services Center - University,1.9747487418
28127,35.454222,-80.202565,-80.194304,35.362616,Stanly Regional Medical Center,6.3338539358
28128,35.218841,-80.159832,-80.194304,35.362616,Stanly Regional Medical Center,10.103503611
28129,35.226778,-80.328652,-80.194304,35.362616,Stanly Regional Medical Center,12.058775357
28130,35.2747,-80.9387,-81.030765,35.249063,CaroMont Endoscopy Center,5.4986050467
28133,34.958686,-80.247074,-80.075520,34.960882,Anson Community Hospital,9.7392175598
28134,35.077531,-80.890748,-80.868406,35.093345,Carolina Endoscopy Center - Pineville,1.6710497197
28135,35.01056,-80.181062,-80.075520,34.960882,Anson Community Hospital,6.899386653
28136,35.4108,-81.6447,-81.539428,35.304557,Cleveland Ambulatory Services (CAS),9.4356086277
28137,35.503388,-80.262548,-80.194304,35.362616,Stanly Regional Medical Center,10.443062752
28138,35.52046,-80.455747,-80.583427,35.463257,Northeast Digestive Health Center,8.2100584374
28139,35.334654,-82.035952,-81.965061,35.363523,Rutherford Hospital,4.472353556
28144,35.71288,-80.444172,-80.471419,35.681738,Rowan Regional Medical Center,2.6383226021
28145,35.6705,-80.4744,-80.471419,35.681738,Rowan Regional Medical Center,0.7928905083
28146,35.62448,-80.397511,-80.471419,35.681738,Rowan Regional Medical Center,5.7351808855
28147,35.694216,-80.558152,-80.471419,35.681738,Rowan Regional Medical Center,4.9546273088
28150,35.364426,-81.5682,-81.539428,35.304557,Cleveland Ambulatory Services (CAS),4.4367812332
28151,35.2923,-81.5356,-81.537819,35.301502,Cleveland Regional Medical Center,0.6467899778
28152,35.240607,-81.589832,-81.537819,35.301502,Cleveland Regional Medical Center,5.1265647833
28159,35.692742,-80.431704,-80.471419,35.681738,Rowan Regional Medical Center,2.3596075226
28160,35.362562,-81.925473,-81.965061,35.363523,Rutherford Hospital,2.2370796529
28163,35.21275,-80.43256,-80.662122,35.169946,Presbyterian Mint Hill,13.325000588
28164,35.385008,-81.04397,-81.138724,35.275053,Gaston Memorial Hospital,9.2818226946
28166,35.680374,-80.871896,-80.876853,35.799414,Iredell Memorial Hospital,8.213546118
28167,35.48757,-81.979763,-81.965061,35.363523,Rutherford Hospital,8.5937997181
28168,35.549362,-81.407226,-81.290895,35.696236,Alexander Hospital,12.061334136
28169,35.361535,-81.428475,-81.539428,35.304557,Cleveland Ambulatory Services (CAS),7.3987426263
28170,35.054174,-80.083576,-80.075520,34.960882,Anson Community Hospital,6.4487079204
28173,34.925912,-80.73473,-80.848032,35.052354,Carolinas Gasttroenterology Center - Ballantyne,10.832370599
28174,34.963934,-80.434734,-80.522368,34.973825,Union Regional Medical Center,5.0204175521
28201,35.2287,-80.8458,-80.825532,35.212877,Presbyterian Hospital,1.5828998619
28202,35.227646,-80.84375,-80.825532,35.212877,Presbyterian Hospital,1.4490288541
28203,35.208484,-80.858125,-80.837469,35.203781,Carolinas Medical Center / Center for Mental Health,1.2131367117
28204,35.213364,-80.8262,-80.825532,35.212877,Presbyterian Hospital,0.0505621259
28205,35.218036,-80.786844,-80.821770,35.209819,Carolinas Medical Center - Mercy and Pineville,2.0559985438
28206,35.251784,-80.820887,-80.825532,35.212877,Presbyterian Hospital,2.6955815834
28207,35.195578,-80.826754,-80.837335,35.203793,Carolinas Gastroenterology Center - Medical Center Plaxa,0.8243133475
28208,35.235858,-80.908465,-80.837469,35.203781,Carolinas Medical Center / Center for Mental Health,4.5858596152
28209,35.17662,-80.852575,-80.837469,35.203781,Carolinas Medical Center / Center for Mental Health,2.0587751872
28210,35.131046,-80.851183,-80.868406,35.093345,Carolina Endoscopy Center - Pineville,2.7766544991
28211,35.171222,-80.792094,-80.807206,35.190329,Endoscopy Services Center - Billingsley Road,1.570861904
28212,35.18145,-80.747842,-80.807206,35.190329,Endoscopy Services Center - Billingsley Road,3.415753487
28213,35.28457,-80.733757,-80.749538,35.305831,Endoscopy Services Center - University,1.7161268707
28214,35.279208,-80.955158,-81.030765,35.249063,CaroMont Endoscopy Center,4.7542662429
28215,35.251976,-80.697133,-80.749538,35.305831,Endoscopy Services Center - University,4.7507890214
28216,35.301252,-80.901662,-80.865963,35.398019,Charlotte Gastroenterology & Hepatology (John J. Delaney Drive),6.9705966796
28217,35.171004,-80.915103,-80.837469,35.203781,Carolinas Medical Center / Center for Mental Health,4.9416683777
28218,35.2267,-80.8434,-80.825532,35.212877,Presbyterian Hospital,1.3894819508
28219,35.2267,-80.8434,-80.825532,35.212877,Presbyterian Hospital,1.3894819508
28220,35.2267,-80.8434,-80.825532,35.212877,Presbyterian Hospital,1.3894819508
28221,35.2267,-80.8434,-80.825532,35.212877,Presbyterian Hospital,1.3894819508
28222,35.2267,-80.8434,-80.825532,35.212877,Presbyterian Hospital,1.3894819508
28223,35.303614,-80.733927,-80.748025,35.307809,Carolinas Medical Center - University,0.8477528121
28224,35.2267,-80.8434,-80.825532,35.212877,Presbyterian Hospital,1.3894819508
28226,35.106787,-80.829246,-80.868406,35.093345,Carolina Endoscopy Center - Pineville,2.4048527194
28227,35.185389,-80.649343,-80.662122,35.169946,Presbyterian Mint Hill,1.2873410669
28228,35.2267,-80.8434,-80.825532,35.212877,Presbyterian Hospital,1.3894819508
28229,35.2267,-80.8434,-80.825532,35.212877,Presbyterian Hospital,1.3894819508
28230,35.2267,-80.8434,-80.825532,35.212877,Presbyterian Hospital,1.3894819508
28231,35.2267,-80.8434,-80.825532,35.212877,Presbyterian Hospital,1.3894819508
28232,35.2267,-80.8434,-80.825532,35.212877,Presbyterian Hospital,1.3894819508
28233,35.2267,-80.8434,-80.825532,35.212877,Presbyterian Hospital,1.3894819508
28234,35.2267,-80.8434,-80.825532,35.212877,Presbyterian Hospital,1.3894819508
28235,35.2267,-80.8434,-80.825532,35.212877,Presbyterian Hospital,1.3894819508
28236,35.2267,-80.8434,-80.825532,35.212877,Presbyterian Hospital,1.3894819508
28237,35.2267,-80.8434,-80.825532,35.212877,Presbyterian Hospital,1.3894819508
28241,35.2267,-80.8434,-80.825532,35.212877,Presbyterian Hospital,1.3894819508
28242,35.2267,-80.8434,-80.825532,35.212877,Presbyterian Hospital,1.3894819508
28243,35.2267,-80.8434,-80.825532,35.212877,Presbyterian Hospital,1.3894819508
28244,35.2257,-80.8433,-80.825532,35.212877,Presbyterian Hospital,1.3388710163
28246,35.2226,-80.8452,-80.825532,35.212877,Presbyterian Hospital,1.2992530317
28247,35.2267,-80.8434,-80.825532,35.212877,Presbyterian Hospital,1.3894819508
28250,35.2267,-80.8434,-80.825532,35.212877,Presbyterian Hospital,1.3894819508
28253,35.2267,-80.8434,-80.825532,35.212877,Presbyterian Hospital,1.3894819508
28254,35.2196,-80.8405,-80.825532,35.212877,Presbyterian Hospital,0.9655446139
28255,35.2267,-80.8434,-80.825532,35.212877,Presbyterian Hospital,1.3894819508
28256,35.2267,-80.8434,-80.825532,35.212877,Presbyterian Hospital,1.3894819508
28258,35.2267,-80.8434,-80.825532,35.212877,Presbyterian Hospital,1.3894819508
28260,35.2267,-80.8434,-80.825532,35.212877,Presbyterian Hospital,1.3894819508
28262,35.326156,-80.746054,-80.748025,35.307809,Carolinas Medical Center - University,1.2699869837
28263,35.2281,-80.8438,-80.825532,35.212877,Presbyterian Hospital,1.4731795387
28265,35.2267,-80.8434,-80.825532,35.212877,Presbyterian Hospital,1.3894819508
28266,35.2267,-80.8434,-80.825532,35.212877,Presbyterian Hospital,1.3894819508
28269,35.340751,-80.7936,-80.748025,35.307809,Carolinas Medical Center - University,3.4340625165
28270,35.113086,-80.761833,-80.713937,35.121801,Presbyterian Matthews,2.7792767682
28271,35.2267,-80.8434,-80.825532,35.212877,Presbyterian Hospital,1.3894819508
28272,35.2229,-80.8452,-80.825532,35.212877,Presbyterian Hospital,1.3100451512
28273,35.123281,-80.933955,-80.868406,35.093345,Carolina Endoscopy Center - Pineville,4.2491162345
28274,35.189283,-80.834012,-80.837335,35.203793,Carolinas Gastroenterology Center - Medical Center Plaxa,1.0180223027
28275,35.2267,-80.8434,-80.825532,35.212877,Presbyterian Hospital,1.3894819508
28277,35.050811,-80.822143,-80.848032,35.052354,Carolinas Gasttroenterology Center - Ballantyne,1.4717654805
28278,35.133437,-81.006914,-81.030765,35.249063,CaroMont Endoscopy Center,8.0861642871
28280,35.2229,-80.8452,-80.825532,35.212877,Presbyterian Hospital,1.3100451512
28281,35.2229,-80.8452,-80.825532,35.212877,Presbyterian Hospital,1.3100451512
28282,35.2229,-80.8452,-80.825532,35.212877,Presbyterian Hospital,1.3100451512
28284,35.2229,-80.8452,-80.825532,35.212877,Presbyterian Hospital,1.3100451512
28285,35.2229,-80.8452,-80.825532,35.212877,Presbyterian Hospital,1.3100451512
28287,35.2229,-80.8452,-80.825532,35.212877,Presbyterian Hospital,1.3100451512
28288,35.2267,-80.8434,-80.825532,35.212877,Presbyterian Hospital,1.3894819508
28289,35.2267,-80.8434,-80.825532,35.212877,Presbyterian Hospital,1.3894819508
28290,35.2267,-80.8434,-80.825532,35.212877,Presbyterian Hospital,1.3894819508
28296,35.2267,-80.8434,-80.825532,35.212877,Presbyterian Hospital,1.3894819508
28297,35.2267,-80.8434,-80.825532,35.212877,Presbyterian Hospital,1.3894819508
28299,35.2267,-80.8434,-80.825532,35.212877,Presbyterian Hospital,1.3894819508
28301,35.066255,-78.88934,-78.887501,35.054080,Highsmith-Rainey Memorial Hospital,0.845924498
28302,35.0527,-78.8789,-78.887501,35.054080,Highsmith-Rainey Memorial Hospital,0.4968649724
28303,35.08744,-78.96894,-78.931286,35.032718,Cape Fear Valley Medical Center,4.3351692451
28304,35.017952,-78.993155,-78.931286,35.032718,Cape Fear Valley Medical Center,3.6538278297
28305,35.056344,-78.908696,-78.911537,35.039438,Fayetteville Gastroenterology Associates,1.1767567852
28306,34.931311,-78.920537,-78.929348,35.026602,Cape Fear Center for Digestive Diseases,6.5892928058
28307,35.146635,-78.990966,-78.931286,35.032718,Cape Fear Valley Medical Center,8.5519710566
28308,35.172756,-79.016122,-78.931286,35.032718,Cape Fear Valley Medical Center,10.786270082
28309,35.0527,-78.8789,-78.887501,35.054080,Highsmith-Rainey Memorial Hospital,0.4968649724
28310,35.12672,-79.165988,-78.931286,35.032718,Cape Fear Valley Medical Center,14.798071131
28311,35.171484,-78.895655,-78.887501,35.054080,Highsmith-Rainey Memorial Hospital,8.108330499
28312,34.97795,-78.702008,-78.887501,35.054080,Highsmith-Rainey Memorial Hospital,11.758734529
28314,35.06445,-79.018656,-78.931286,35.032718,Cape Fear Valley Medical Center,5.4157252551
28315,35.123312,-79.460264,-79.458318,35.200801,FirstHealth Moore Regional Hospital,5.3441469083
28318,35.0241,-78.616769,-78.887501,35.054080,Highsmith-Rainey Memorial Hospital,15.491463682
28319,34.4086,-79.0477,-79.010575,34.636497,Southeastern Regional Medical Center,15.854441156
28320,34.562365,-78.752126,-79.008058,34.636359,Southeastern Gastroenterology Endoscopy Center,15.457101389
28323,35.315817,-78.855056,-78.669739,35.327385,"Good Hope Hospital - Inc",10.503166966
28325,35.152295,-78.102314,-77.953246,35.400761,Wayne Memorial Hospital,19.093725059
28326,35.287932,-79.181772,-79.190041,35.464606,Mid Carolina Gasttroenterology Associates,12.191380733
28327,35.354624,-79.436892,-79.453529,35.209543,Pinehurst Medical Clinic Endoscopy Center,10.047932132
28328,34.986013,-78.34307,-78.618775,35.313149,"Kurt G. Vernon - M.D.",27.433389985
28329,35.0021,-78.3309,-78.618775,35.313149,"Kurt G. Vernon - M.D.",26.939324138
28330,34.910118,-79.821664,-79.751136,34.928632,FirstHealth Richmond Memorial Hospital,4.2038913234
28331,35.0024,-78.9738,-78.929348,35.026602,Cape Fear Center for Digestive Diseases,3.023746618
28332,34.657513,-78.710252,-79.008058,34.636359,Southeastern Gastroenterology Endoscopy Center,17.031122881
28333,35.283104,-78.019544,-77.953246,35.400761,Wayne Memorial Hospital,8.9358869789
28334,35.277056,-78.542477,-78.618775,35.313149,"Kurt G. Vernon - M.D.",4.9797441717
28335,35.3061,-78.6095,-78.618775,35.313149,"Kurt G. Vernon - M.D.",0.714892729
28337,34.70272,-78.548958,-78.694133,34.338588,Columbus Regional Health Care System,26.436487655
28338,35.098764,-79.7509,-79.751136,34.928632,FirstHealth Richmond Memorial Hospital,11.730638184
28339,35.327042,-78.741944,-78.669739,35.327385,"Good Hope Hospital - Inc",4.0803140066
28340,34.440291,-79.14981,-79.010575,34.636497,Southeastern Regional Medical Center,15.687345284
28341,35.123068,-78.167911,-77.953246,35.400761,Wayne Memorial Hospital,22.672071184
28342,35.192968,-78.649276,-78.633127,35.307403,Betsy Johnson Regional Hospital,7.9433155457
28343,34.761667,-79.582282,-79.472110,34.753729,Scotland Surgical & GI,6.2929294687
28344,35.167305,-78.63051,-78.633127,35.307403,Betsy Johnson Regional Hospital,9.6612726571
28345,34.889132,-79.68062,-79.706053,34.900594,Marlboro GI Endoscopy Center,1.6468253328
28347,35.050194,-79.549889,-79.458318,35.200801,FirstHealth Moore Regional Hospital,11.608127793
28348,34.925262,-78.916161,-78.929348,35.026602,Cape Fear Center for Digestive Diseases,7.0273317307
28349,34.969342,-77.933223,-77.919870,34.550705,Pender Memorial Hospital,28.873884964
28350,35.240259,-79.315498,-79.453529,35.209543,Pinehurst Medical Clinic Endoscopy Center,8.0919218398
28351,34.8928,-79.570087,-79.706053,34.900594,Marlboro GI Endoscopy Center,7.74251599
28352,34.759283,-79.46481,-79.472110,34.753729,Scotland Surgical & GI,0.5649701738
28353,34.7736,-79.4632,-79.472110,34.753729,Scotland Surgical & GI,1.4608417805
28355,35.3686,-79.1856,-79.190041,35.464606,Mid Carolina Gasttroenterology Associates,6.6248160875
28356,35.23131,-78.783586,-78.669739,35.327385,"Good Hope Hospital - Inc",9.2370864524
28357,34.905448,-79.077793,-78.929348,35.026602,Cape Fear Center for Digestive Diseases,11.864773705
28358,34.592052,-78.967289,-79.008058,34.636359,Southeastern Gastroenterology Endoscopy Center,3.8382324657
28359,34.6181,-79.0086,-79.008058,34.636359,Southeastern Gastroenterology Endoscopy Center,1.2592599779
28360,34.660208,-79.079674,-79.010575,34.636497,Southeastern Regional Medical Center,4.263007071
28362,34.366856,-79.120476,-79.010575,34.636497,Southeastern Regional Medical Center,19.620033023
28363,34.980128,-79.620281,-79.706053,34.900594,Marlboro GI Endoscopy Center,7.3340314925
28364,34.715876,-79.336443,-79.470339,34.751723,Scotland Memorial Hospital,8.011978375
28365,35.179611,-78.078328,-77.953246,35.400761,Wayne Memorial Hospital,16.808891655
28366,35.24335,-78.36939,-78.618775,35.313149,"Kurt G. Vernon - M.D.",14.899754249
28367,35.174074,-79.72869,-79.458318,35.200801,FirstHealth Moore Regional Hospital,15.415303198
28368,35.349539,-79.095414,-79.190041,35.464606,Mid Carolina Gasttroenterology Associates,9.5651481666
28369,34.426164,-79.035678,-79.010575,34.636497,Southeastern Regional Medical Center,14.571909167
28370,35.1995,-79.4706,-79.458318,35.200801,FirstHealth Moore Regional Hospital,0.7008945511
28371,34.902011,-78.993091,-78.929348,35.026602,Cape Fear Center for Digestive Diseases,9.3213340574
28372,34.690823,-79.168973,-79.010575,34.636497,Southeastern Regional Medical Center,9.7699788771
28373,35.086934,-79.510052,-79.458318,35.200801,FirstHealth Moore Regional Hospital,8.3802311172
28374,35.202868,-79.46094,-79.458318,35.200801,FirstHealth Moore Regional Hospital,0.2057533416
28375,34.4759,-79.0309,-79.010575,34.636497,Southeastern Regional Medical Center,11.132887181
28376,34.978726,-79.247015,-78.931286,35.032718,Cape Fear Valley Medical Center,18.2947057
28377,34.836798,-79.214671,-79.470339,34.751723,Scotland Memorial Hospital,15.680242629
28378,34.858228,-79.049594,-78.929348,35.026602,Cape Fear Center for Digestive Diseases,13.46788339
28379,34.929835,-79.784392,-79.751136,34.928632,FirstHealth Richmond Memorial Hospital,1.8902550134
28380,34.9496,-79.7549,-79.751136,34.928632,FirstHealth Richmond Memorial Hospital,1.4614398407
28382,35.001127,-78.50655,-78.887501,35.054080,Highsmith-Rainey Memorial Hospital,21.912666813
28383,34.56014,-79.278751,-79.010575,34.636497,Southeastern Regional Medical Center,16.17016204
28384,34.793339,-78.969934,-79.008058,34.636359,Southeastern Gastroenterology Endoscopy Center,11.038751521
28385,35.046746,-78.505288,-78.633127,35.307403,Betsy Johnson Regional Hospital,19.375306044
28386,34.846884,-79.112213,-79.010575,34.636497,Southeastern Regional Medical Center,15.616432645
28387,35.172066,-79.389525,-79.458318,35.200801,FirstHealth Moore Regional Hospital,4.3692355371
28388,35.1736,-79.3925,-79.458318,35.200801,FirstHealth Moore Regional Hospital,4.1711827564
28390,35.228317,-78.983116,-78.887501,35.054080,Highsmith-Rainey Memorial Hospital,13.178075472
28391,35.032929,-78.698866,-78.887501,35.054080,Highsmith-Rainey Memorial Hospital,10.79567791
28392,34.753016,-78.809476,-79.008058,34.636359,Southeastern Gastroenterology Endoscopy Center,13.877026507
28393,34.956401,-78.191279,-77.919870,34.550705,Pender Memorial Hospital,31.952252666
28394,35.222951,-79.227424,-79.453529,35.209543,Pinehurst Medical Clinic Endoscopy Center,12.827800958
28395,35.127098,-78.740525,-78.887501,35.054080,Highsmith-Rainey Memorial Hospital,9.7329589264
28396,34.903002,-79.425993,-79.472110,34.753729,Scotland Surgical & GI,10.620808977
28398,34.989136,-78.053481,-77.953246,35.400761,Wayne Memorial Hospital,28.943937673
28399,34.770858,-78.731556,-79.008058,34.636359,Southeastern Gastroenterology Endoscopy Center,18.271980361
28401,34.265871,-77.969741,-77.924994,34.214674,Wilimington SurgCare,4.361410308
28402,34.2259,-77.9451,-77.924994,34.214674,Wilimington SurgCare,1.3873738248
28403,34.22192,-77.870397,-77.868860,34.208520,Wilmington Gastroenterology,0.927995631
28404,34.2259,-77.9451,-77.924994,34.214674,Wilimington SurgCare,1.3873738248
28405,34.27068,-77.859495,-77.868860,34.208520,Wilmington Gastroenterology,4.3188129114
28406,34.2259,-77.9451,-77.924994,34.214674,Wilimington SurgCare,1.3873738248
28407,34.2259,-77.9451,-77.924994,34.214674,Wilimington SurgCare,1.3873738248
28408,34.2296,-77.9389,-77.924994,34.214674,Wilimington SurgCare,1.3011802001
28409,34.133744,-77.855354,-77.868860,34.208520,Wilmington Gastroenterology,5.2128746465
28410,34.2257,-77.9451,-77.924994,34.214674,Wilimington SurgCare,1.3797307688
28411,34.294059,-77.796455,-77.868860,34.208520,Wilmington Gastroenterology,7.2081999432
28412,34.12577,-77.920954,-77.929193,34.202601,Wilimington Health Associates,5.3177738486
28420,34.07299,-78.451468,-78.260152,34.031253,Brunswick Community Hospital / Brunswick Novant Medical Center,11.348976579
28421,34.508993,-78.188812,-77.919870,34.550705,Pender Memorial Hospital,15.612586991
28422,34.01517,-78.169214,-78.260152,34.031253,Brunswick Community Hospital / Brunswick Novant Medical Center,5.3364647747
28423,34.270989,-78.40211,-78.694133,34.338588,Columbus Regional Health Care System,17.34493825
28424,34.2856,-78.7015,-78.694133,34.338588,Columbus Regional Health Care System,3.6773399565
28425,34.559404,-77.945254,-77.919870,34.550705,Pender Memorial Hospital,1.5672356589
28428,34.037844,-77.903582,-78.022060,33.928756,J. Athur Dosher Memorial Hospital,10.141541851
28429,34.337664,-77.899708,-77.924994,34.214674,Wilimington SurgCare,8.6017601972
28430,34.287423,-78.924698,-78.694133,34.338588,Columbus Regional Health Care System,13.65325086
28431,34.326844,-78.849239,-78.694133,34.338588,Columbus Regional Health Care System,8.9078011111
28432,34.176032,-78.796542,-78.694133,34.338588,Columbus Regional Health Care System,12.647539628
28433,34.505266,-78.665286,-78.694133,34.338588,Columbus Regional Health Care System,11.608940917
28434,34.475063,-78.449038,-78.694133,34.338588,Columbus Regional Health Care System,16.87240843
28435,34.424718,-78.112442,-77.919870,34.550705,Pender Memorial Hospital,14.010812865
28436,34.272167,-78.26213,-78.260152,34.031253,Brunswick Community Hospital / Brunswick Novant Medical Center,16.609098371
28438,34.411545,-78.894936,-78.694133,34.338588,Columbus Regional Health Care System,12.532350494
28439,34.304215,-79.019428,-78.694133,34.338588,Columbus Regional Health Care System,18.757281769
28441,34.80422,-78.402139,-78.887501,35.054080,Highsmith-Rainey Memorial Hospital,32.502415777
28442,34.283244,-78.600218,-78.694133,34.338588,Columbus Regional Health Care System,6.5896574674
28443,34.441389,-77.674658,-77.919870,34.550705,Pender Memorial Hospital,15.897186768
28444,34.688508,-78.289848,-77.919870,34.550705,Pender Memorial Hospital,23.129185789
28445,34.49116,-77.544888,-77.382677,34.762381,Onslow Memorial Hospital,20.85997737
28447,34.580912,-78.236162,-77.919870,34.550705,Pender Memorial Hospital,18.159219467
28448,34.504955,-78.309872,-77.919870,34.550705,Pender Memorial Hospital,22.475905948
28449,33.970858,-77.922954,-78.022060,33.928756,J. Athur Dosher Memorial Hospital,6.3908590399
28450,34.34308,-78.523971,-78.694133,34.338588,Columbus Regional Health Care System,9.736010415
28451,34.253876,-78.103084,-77.924994,34.214674,Wilimington SurgCare,10.54939473
28452,33.989015,-78.56034,-78.260152,34.031253,Brunswick Community Hospital / Brunswick Novant Medical Center,17.478255275
28453,34.874702,-78.076328,-77.919870,34.550705,Pender Memorial Hospital,24.049057819
28454,34.615399,-77.747989,-77.919870,34.550705,Pender Memorial Hospital,10.768243428
28455,34.105218,-78.627993,-78.694133,34.338588,Columbus Regional Health Care System,16.528652181
28456,34.390078,-78.285903,-78.694133,34.338588,Columbus Regional Health Care System,23.607415299
28457,34.474315,-77.89169,-77.919870,34.550705,Pender Memorial Hospital,5.5067459931
28458,34.81779,-78.085027,-77.919870,34.550705,Pender Memorial Hospital,20.677814259
28459,33.9593,-78.431,-78.260152,34.031253,Brunswick Community Hospital / Brunswick Novant Medical Center,10.992961074
28460,34.512118,-77.42675,-77.378404,34.761224,East Carolina Gastroenterology Center,17.394398484
28461,33.96282,-78.042053,-78.022060,33.928756,J. Athur Dosher Memorial Hospital,2.614193449
28462,34.058711,-78.321656,-78.260152,34.031253,Brunswick Community Hospital / Brunswick Novant Medical Center,4.0051065893
28463,34.09293,-78.791954,-78.694133,34.338588,Columbus Regional Health Care System,17.838522386
28464,34.776228,-78.021058,-77.919870,34.550705,Pender Memorial Hospital,16.583069015
28465,33.907604,-78.124192,-78.022060,33.928756,J. Athur Dosher Memorial Hospital,6.048190417
28466,34.760682,-77.939562,-77.919870,34.550705,Pender Memorial Hospital,14.520502369
28467,33.911555,-78.595532,-78.260152,34.031253,Brunswick Community Hospital / Brunswick Novant Medical Center,20.956140164
28468,33.904022,-78.518859,-78.260152,34.031253,Brunswick Community Hospital / Brunswick Novant Medical Center,17.255426025
28469,33.936146,-78.454755,-78.260152,34.031253,Brunswick Community Hospital / Brunswick Novant Medical Center,12.957066318
28470,33.956706,-78.400999,-78.260152,34.031253,Brunswick Community Hospital / Brunswick Novant Medical Center,9.5823379092
28472,34.285434,-78.63755,-78.694133,34.338588,Columbus Regional Health Care System,4.8894445687
28478,34.63641,-78.044986,-77.919870,34.550705,Pender Memorial Hospital,9.2629718335
28479,34.114758,-78.087957,-77.929193,34.202601,Wilimington Health Associates,10.92993211
28480,34.216897,-77.793306,-77.868860,34.208520,Wilmington Gastroenterology,4.3656479957
28501,35.264366,-77.499001,-77.580439,35.290046,Lenoir Memorial Hospital,4.9335455372
28502,35.2625,-77.5817,-77.588315,35.289519,Park Endoscopy Center,1.9002229419
28503,35.2625,-77.5817,-77.588315,35.289519,Park Endoscopy Center,1.9002229419
28504,35.22683,-77.651097,-77.588315,35.289519,Park Endoscopy Center,5.593995776
28508,35.093107,-77.8212,-77.588315,35.289519,Park Endoscopy Center,18.89925675
28509,35.1477,-76.8108,-77.066269,35.111960,CarolinaEast Medical Center /Craven Regional Medical Center,14.679670675
28510,35.001486,-76.8044,-77.066269,35.111960,CarolinaEast Medical Center /Craven Regional Medical Center,16.687107854
28511,34.890044,-76.357502,-76.753660,34.724829,Carteret General Hospital,25.245023045
28512,34.697271,-76.792974,-76.757436,34.727995,Carteret Surgery Center / The Surgical Center of Morehead City,2.9293426046
28513,35.439358,-77.380616,-77.406194,35.597618,Quadrangle Endoscopy Center,11.007821546
28515,35.189112,-76.712784,-77.066269,35.111960,CarolinaEast Medical Center /Craven Regional Medical Center,20.713286275
28516,34.891116,-76.53507,-76.753660,34.724829,Carteret General Hospital,16.910768196
28518,34.888621,-77.744686,-77.382677,34.762381,Onslow Memorial Hospital,22.347158035
28519,35.122368,-77.020945,-77.066269,35.111960,CarolinaEast Medical Center /Craven Regional Medical Center,2.6662270356
28520,34.94196,-76.33561,-76.753660,34.724829,Carteret General Hospital,28.088530319
28521,34.819234,-77.734893,-77.382677,34.762381,Onslow Memorial Hospital,20.4139095
28522,35.0092,-77.5003,-77.382677,34.762381,Onslow Memorial Hospital,18.282937965
28523,35.205071,-77.288321,-77.093478,35.108212,CCHC Endoscopy Center,12.89735221
28524,34.790556,-76.470922,-76.753660,34.724829,Carteret General Hospital,16.714596483
28525,35.135847,-77.69497,-77.588315,35.289519,Park Endoscopy Center,12.194399398
28526,35.260896,-77.387335,-77.580439,35.290046,Lenoir Memorial Hospital,11.102553534
28527,35.289239,-77.018329,-77.066269,35.111960,CarolinaEast Medical Center /Craven Regional Medical Center,12.521300692
28528,34.73307,-76.541755,-76.753660,34.724829,Carteret General Hospital,12.075518284
28529,35.093022,-76.877464,-77.066269,35.111960,CarolinaEast Medical Center /Craven Regional Medical Center,10.778051727
28530,35.384636,-77.414483,-77.580439,35.290046,Lenoir Memorial Hospital,11.422196904
28531,34.665381,-76.542773,-76.753660,34.724829,Carteret General Hospital,12.689277707
28532,34.897706,-76.867361,-76.757436,34.727995,Carteret Surgery Center / The Surgical Center of Morehead City,13.2661866
28533,34.8973,-76.9091,-76.757436,34.727995,Carteret Surgery Center / The Surgical Center of Morehead City,14.513570447
28537,35.25232,-76.539976,-77.066269,35.111960,CarolinaEast Medical Center /Craven Regional Medical Center,31.325882117
28538,35.420665,-77.552571,-77.587160,35.291536,Kinston Medical Specialists,9.1158336615
28539,34.660524,-77.259458,-77.378404,34.761224,East Carolina Gastroenterology Center,9.698792742
28540,34.729522,-77.498376,-77.382677,34.762381,Onslow Memorial Hospital,6.9633696229
28541,34.7538,-77.4309,-77.382677,34.762381,Onslow Memorial Hospital,2.8070631194
28542,34.644914,-77.321171,-77.378404,34.761224,East Carolina Gastroenterology Center,8.6560640857
28543,34.735572,-77.378745,-77.378404,34.761224,East Carolina Gastroenterology Center,1.7687389228
28544,34.73567,-77.312931,-77.378404,34.761224,East Carolina Gastroenterology Center,4.1215685852
28545,34.7158,-77.4504,-77.382677,34.762381,Onslow Memorial Hospital,5.0171287593
28546,34.817584,-77.375096,-77.382677,34.762381,Onslow Memorial Hospital,3.8304649534
28547,34.691189,-77.343973,-77.378404,34.761224,East Carolina Gastroenterology Center,5.2113102143
28551,35.317633,-77.77143,-77.588315,35.289519,Park Endoscopy Center,10.53065812
28552,35.292336,-76.570852,-77.066269,35.111960,CarolinaEast Medical Center /Craven Regional Medical Center,30.673290639
28553,34.72989,-76.520357,-76.753660,34.724829,Carteret General Hospital,13.285006158
28554,35.48797,-77.60043,-77.406194,35.597618,Quadrangle Endoscopy Center,13.304204733
28555,34.852952,-77.233579,-77.378404,34.761224,East Carolina Gastroenterology Center,10.384154248
28556,35.116111,-76.675154,-77.066269,35.111960,CarolinaEast Medical Center /Craven Regional Medical Center,22.161291908
28557,34.738947,-76.766436,-76.757436,34.727995,Carteret Surgery Center / The Surgical Center of Morehead City,0.9124756025
28560,35.099246,-76.981852,-77.066269,35.111960,CarolinaEast Medical Center /Craven Regional Medical Center,4.8629870466
28561,35.1084,-77.0446,-77.066269,35.111960,CarolinaEast Medical Center /Craven Regional Medical Center,1.2520590708
28562,35.071026,-77.114132,-77.093478,35.108212,CCHC Endoscopy Center,2.8185706627
28563,35.1084,-77.0446,-77.066269,35.111960,CarolinaEast Medical Center /Craven Regional Medical Center,1.2520590708
28564,35.1084,-77.0446,-77.066269,35.111960,CarolinaEast Medical Center /Craven Regional Medical Center,1.2520590708
28570,34.775636,-76.885927,-76.757436,34.727995,Carteret Surgery Center / The Surgical Center of Morehead City,8.0159047512
28571,35.056788,-76.699534,-77.066269,35.111960,CarolinaEast Medical Center /Craven Regional Medical Center,21.130919027
28572,35.024833,-77.730516,-77.588315,35.289519,Park Endoscopy Center,19.948064968
28573,35.024252,-77.232858,-77.093478,35.108212,CCHC Endoscopy Center,9.7952606407
28574,34.852617,-77.567756,-77.382677,34.762381,Onslow Memorial Hospital,12.226491419
28575,34.688782,-76.88671,-76.757436,34.727995,Carteret Surgery Center / The Surgical Center of Morehead City,7.8412450561
28577,34.887097,-76.387851,-76.753660,34.724829,Carteret General Hospital,23.621011705
28578,35.203394,-77.885312,-77.953246,35.400761,Wayne Memorial Hospital,14.140538271
28579,34.787934,-76.507202,-76.753660,34.724829,Carteret General Hospital,14.683756361
28580,35.45113,-77.655968,-77.587160,35.291536,Kinston Medical Specialists,11.670706074
28581,34.858408,-76.412238,-76.753660,34.724829,Carteret General Hospital,21.493127758
28582,34.75852,-77.143284,-77.378404,34.761224,East Carolina Gastroenterology Center,13.379909193
28583,35.1363,-76.7492,-77.066269,35.111960,CarolinaEast Medical Center /Craven Regional Medical Center,18.040233861
28584,34.74003,-77.109483,-77.378404,34.761224,East Carolina Gastroenterology Center,15.373238161
28585,35.081038,-77.482354,-77.580439,35.290046,Lenoir Memorial Hospital,15.444133235
28586,35.310312,-77.181617,-77.093478,35.108212,CCHC Endoscopy Center,14.80104662
28587,35.188808,-76.66897,-77.066269,35.111960,CarolinaEast Medical Center /Craven Regional Medical Center,23.115331507
28589,34.805568,-76.499234,-76.753660,34.724829,Carteret General Hospital,15.509651589
28590,35.522956,-77.411902,-77.406194,35.597618,Quadrangle Endoscopy Center,5.1584601276
28594,34.663864,-77.006645,-76.757436,34.727995,Carteret Surgery Center / The Surgical Center of Morehead City,14.864090191
28601,35.780393,-81.33651,-81.337686,35.737225,Frye Regional Medical Center,2.9775426068
28602,35.67682,-81.385287,-81.337822,35.737168,Gastroenterology Associates of Hickory,4.9441613385
28603,35.7334,-81.3416,-81.337822,35.737168,Gastroenterology Associates of Hickory,0.3356096815
28604,36.187108,-81.831167,-81.887065,36.065362,"Charles A. Cannon - Jr. Memorial Hospital",8.959493677
28605,36.122346,-81.749738,-81.657115,36.203186,Appalachian Gastroenterology,7.6098106778
28606,36.058088,-81.316149,-81.155708,36.153474,Wilkes Regional Gastroenterology,11.130441157
28607,36.225041,-81.656946,-81.657115,36.203186,Appalachian Gastroenterology,1.5072364355
28608,36.21414,-81.678913,-81.657115,36.203186,Appalachian Gastroenterology,1.4334776963
28609,35.687117,-81.039168,-80.876853,35.799414,Iredell Memorial Hospital,11.968017147
28610,35.735012,-81.138793,-81.265174,35.714478,Catawba Valley Medical Center,7.2462479724
28611,36.005759,-81.752853,-81.887065,36.065362,"Charles A. Cannon - Jr. Memorial Hospital",8.567801796
28612,35.671746,-81.555475,-81.524700,35.747585,Valdese General Hospital,5.508696024
28613,35.741044,-81.215278,-81.265174,35.714478,Catawba Valley Medical Center,3.3507387522
28615,36.4712,-81.644809,-81.459686,36.422983,Ashe Memorial Hospital,10.837658797
28616,36.030231,-81.923055,-81.887065,36.065362,"Charles A. Cannon - Jr. Memorial Hospital",3.1515026846
28617,36.481406,-81.37388,-81.459686,36.422983,Ashe Memorial Hospital,6.2522036418
28618,36.201388,-81.517832,-81.652136,36.199331,Watauga Medical Center,7.5082625795
28619,35.759842,-81.601444,-81.597469,35.763387,Blue Ridge GI / Carolina Digestive Care,0.3311717228
28621,36.319026,-80.852816,-80.837841,36.262262,"Hugh Chatham Memorial Hospital - Inc.",4.0030027782
28622,36.203675,-81.952829,-81.887065,36.065362,"Charles A. Cannon - Jr. Memorial Hospital",10.223371719
28623,36.523334,-80.968815,-80.837841,36.262262,"Hugh Chatham Memorial Hospital - Inc.",19.429731896
28624,36.120335,-81.424922,-81.652136,36.199331,Watauga Medical Center,13.825272024
28625,35.888144,-80.891066,-80.830918,35.818181,Davis Regional Medical Center,5.8889355935
28626,36.289116,-81.496806,-81.459686,36.422983,Ashe Memorial Hospital,9.4615862537
28627,36.441796,-81.003008,-80.837841,36.262262,"Hugh Chatham Memorial Hospital - Inc.",15.433929203
28628,35.7287,-81.7795,-81.657821,35.723543,Grace Hospital,6.8512710045
28629,36.336276,-81.370352,-81.459686,36.422983,Ashe Memorial Hospital,7.783170081
28630,35.836248,-81.44957,-81.536208,35.910750,Caldwell Memorial Hospital,7.0739818952
28631,36.545148,-81.421522,-81.459686,36.422983,Ashe Memorial Hospital,8.6893184292
28633,35.9137,-81.5393,-81.536208,35.910750,Caldwell Memorial Hospital,0.2673443072
28634,35.96449,-80.770468,-80.830918,35.818181,Davis Regional Medical Center,10.644445951
28635,36.334453,-81.123675,-81.156509,36.158676,Wilkes Regional Medical Center,12.260315033
28636,35.935977,-81.060017,-80.876853,35.799414,Iredell Memorial Hospital,13.942300772
28637,35.720059,-81.423754,-81.337822,35.737168,Gastroenterology Associates of Hickory,4.9737782184
28638,35.841336,-81.477371,-81.536208,35.910750,Caldwell Memorial Hospital,5.8153197997
28640,36.402418,-81.408604,-81.459686,36.422983,Ashe Memorial Hospital,3.1811623664
28641,35.9725,-81.8951,-81.887065,36.065362,"Charles A. Cannon - Jr. Memorial Hospital",6.4197217213
28642,36.221775,-80.8137,-80.852946,36.243677,Tri County Gastroenterology,2.6626357696
28643,36.517855,-81.546664,-81.459686,36.422983,Ashe Memorial Hospital,8.1415044991
28644,36.439295,-81.268174,-81.459686,36.422983,Ashe Memorial Hospital,10.732181459
28645,35.95583,-81.531037,-81.536208,35.910750,Caldwell Memorial Hospital,3.1222464334
28646,36.080158,-81.864924,-81.887065,36.065362,"Charles A. Cannon - Jr. Memorial Hospital",1.6055209608
28647,35.9592,-81.9431,-82.062961,35.910591,Spruce Pine Community Hospital  / Blue Ridge Regional Hospital,7.5116127095
28649,36.325466,-81.207254,-81.156509,36.158676,Wilkes Regional Medical Center,11.846737935
28650,35.573174,-81.160071,-81.201510,35.488313,Lincoln Medical Center,6.3006456615
28651,36.26553,-81.281121,-81.156509,36.158676,Wilkes Regional Medical Center,10.139157208
28652,36.0825,-81.9964,-81.887065,36.065362,"Charles A. Cannon - Jr. Memorial Hospital",6.2341476353
28653,36.0651,-81.9028,-81.887065,36.065362,"Charles A. Cannon - Jr. Memorial Hospital",0.8812022433
28654,36.064597,-81.137997,-81.155708,36.153474,Wilkes Regional Gastroenterology,6.2088148443
28655,35.761193,-81.723971,-81.657821,35.723543,Grace Hospital,4.5354961142
28656,36.1585,-81.1478,-81.156509,36.158676,Wilkes Regional Medical Center,0.4871993071
28657,36.026391,-81.933475,-81.887065,36.065362,"Charles A. Cannon - Jr. Memorial Hospital",3.7387778872
28658,35.644075,-81.242969,-81.290895,35.696236,Alexander Hospital,4.4955846007
28659,36.168302,-81.063274,-81.156509,36.158676,Wilkes Regional Medical Center,5.2559047927
28660,35.971251,-80.86293,-80.830918,35.818181,Davis Regional Medical Center,10.707485933
28661,35.9886,-81.5588,-81.536208,35.910750,Caldwell Memorial Hospital,5.5160390596
28662,36.026197,-81.836697,-81.887065,36.065362,"Charles A. Cannon - Jr. Memorial Hospital",3.9053813525
28663,36.535532,-81.295192,-81.459686,36.422983,Ashe Memorial Hospital,12.007804181
28664,36.0267,-82.0082,-81.887065,36.065362,"Charles A. Cannon - Jr. Memorial Hospital",7.2892223217
28665,36.216754,-81.362062,-81.156509,36.158676,Wilkes Regional Medical Center,12.169246424
28666,35.726121,-81.47174,-81.524700,35.747585,Valdese General Hospital,3.32514447
28667,35.7739,-81.4315,-81.524700,35.747585,Valdese General Hospital,5.5437935253
28668,36.386325,-81.01965,-80.837841,36.262262,"Hugh Chatham Memorial Hospital - Inc.",13.272165076
28669,36.220033,-80.996731,-80.852946,36.243677,Tri County Gastroenterology,8.1974522359
28670,36.199749,-80.929514,-80.852946,36.243677,Tri County Gastroenterology,5.2425228427
28671,35.752818,-81.53405,-81.524700,35.747585,Valdese General Hospital,0.637549561
28672,36.469494,-81.330979,-81.459686,36.422983,Ashe Memorial Hospital,7.856207608
28673,35.601448,-80.994261,-80.851530,35.547783,Lake Norman Regional Medical Center,8.8516198055
28675,36.482727,-81.153858,-81.459686,36.422983,Ashe Memorial Hospital,17.530293154
28676,36.334376,-80.864206,-80.837841,36.262262,"Hugh Chatham Memorial Hospital - Inc.",5.1865556848
28677,35.722874,-80.909847,-80.876853,35.799414,Iredell Memorial Hospital,5.5944004615
28678,35.839522,-81.057495,-80.876853,35.799414,Iredell Memorial Hospital,10.515913797
28679,36.25333,-81.84733,-81.657115,36.203186,Appalachian Gastroenterology,11.176730358
28680,35.7456,-81.6852,-81.657821,35.723543,Grace Hospital,2.1640544002
28681,35.916468,-81.200142,-81.265174,35.714478,Catawba Valley Medical Center,14.400061328
28682,35.578588,-80.961581,-80.851530,35.547783,Lake Norman Regional Medical Center,6.5545213945
28683,36.383228,-80.920005,-80.837841,36.262262,"Hugh Chatham Memorial Hospital - Inc.",9.5195703534
28684,36.334618,-81.61625,-81.657115,36.203186,Appalachian Gastroenterology,9.347035521
28685,36.354474,-81.030234,-80.837841,36.262262,"Hugh Chatham Memorial Hospital - Inc.",12.480720338
28687,35.7827,-80.8875,-80.876853,35.799414,Iredell Memorial Hospital,1.2985700483
28688,35.9066,-80.8106,-80.830918,35.818181,Davis Regional Medical Center,6.2031177052
28689,36.041314,-80.91722,-80.852946,36.243677,Tri County Gastroenterology,14.411244411
28690,35.733204,-81.581153,-81.597469,35.763387,Blue Ridge GI / Carolina Digestive Care,2.2745065804
28691,36.2107,-81.8847,-81.887065,36.065362,"Charles A. Cannon - Jr. Memorial Hospital",10.023826119
28692,36.278405,-81.80394,-81.657115,36.203186,Appalachian Gastroenterology,9.705221451
28693,36.461478,-81.55572,-81.459686,36.422983,Ashe Memorial Hospital,5.9736348012
28694,36.360784,-81.473539,-81.459686,36.422983,Ashe Memorial Hospital,4.3586053486
28697,36.137742,-81.158399,-81.155708,36.153474,Wilkes Regional Gastroenterology,1.0953195609
28698,36.344038,-81.737562,-81.657115,36.203186,Appalachian Gastroenterology,10.702316466
28699,35.8425,-81.0097,-80.876853,35.799414,Iredell Memorial Hospital,8.030983561
28701,35.706464,-82.650825,-82.551757,35.588653,The Endoscopy Center Asheville Gastroenterology,9.8534796687
28702,35.383864,-83.637434,-83.444711,35.435019,Swain County Hospital,11.437114611
28704,35.462322,-82.575759,-82.486888,35.390221,Park Ridge Hospital,7.0623748299
28705,36.043874,-82.232506,-82.062961,35.910591,Spruce Pine Community Hospital  / Blue Ridge Regional Hospital,13.221125803
28707,35.418728,-83.07925,-83.200610,35.386733,Western Carolina Digestive Consultants,7.19800965
28708,35.235347,-82.891952,-82.712454,35.256379,Transylvania Community Hospital,10.256479557
28709,35.75313,-82.410935,-82.551757,35.588653,The Endoscopy Center Asheville Gastroenterology,13.835756987
28710,35.467298,-82.286808,-82.486888,35.390221,Park Ridge Hospital,12.480432741
28711,35.605042,-82.276717,-82.548550,35.578065,Mission Hospitals,15.42348136
28712,35.211194,-82.75938,-82.712454,35.256379,Transylvania Community Hospital,4.0932967584
28713,35.445608,-83.642504,-83.444711,35.435019,Swain County Hospital,11.185386991
28714,35.891669,-82.312339,-82.062961,35.910591,Spruce Pine Community Hospital  / Blue Ridge Regional Hospital,14.052551023
28715,35.51259,-82.714158,-82.548550,35.578065,Mission Hospitals,10.367853756
28716,35.459788,-82.86773,-82.943476,35.525869,Haywood Regional Medical Center,6.2457716186
28717,35.078206,-83.093726,-83.185838,35.085967,"Highlands - Cashiers Hospital - inc.",5.2481919867
28718,35.143676,-82.611027,-82.712454,35.256379,Transylvania Community Hospital,9.6614702924
28719,35.606862,-83.23007,-83.200610,35.386733,Western Carolina Digestive Consultants,15.2697845
28720,35.4393,-82.2469,-82.486888,35.390221,Park Ridge Hospital,13.963204983
28721,35.649276,-82.97283,-82.943476,35.525869,Haywood Regional Medical Center,8.6688850124
28722,35.250922,-82.116662,-81.965061,35.363523,Rutherford Hospital,11.563317013
28723,35.252109,-83.103672,-83.202876,35.383952,Harris Regional Hospital,10.680865179
28724,35.3293,-82.3757,-82.465509,35.324231,Carolina Mountani Gastroenterology Endoscopy Center,5.0870829773
28725,35.371991,-83.257232,-83.202876,35.383952,Harris Regional Hospital,3.1785597121
28726,35.28099,-82.419278,-82.468106,35.320703,Margaret R. Pardee Memoriral Hospital,3.8880387783
28727,35.3922,-82.3425,-82.486888,35.390221,Park Ridge Hospital,8.1539536293
28728,35.4572,-82.7746,-82.943476,35.525869,Haywood Regional Medical Center,10.635883018
28729,35.31871,-82.600841,-82.468106,35.320703,Margaret R. Pardee Memoriral Hospital,7.5026978779
28730,35.527078,-82.377088,-82.548550,35.578065,Mission Hospitals,10.282008519
28731,35.287628,-82.388665,-82.465509,35.324231,Carolina Mountani Gastroenterology Endoscopy Center,5.0235787185
28732,35.45761,-82.482468,-82.486888,35.390221,Park Ridge Hospital,4.6534904721
28733,35.433268,-83.814008,-83.444711,35.435019,Swain County Hospital,20.841492547
28734,35.163665,-83.433889,-83.377748,35.184837,Angel Medical Center,3.4976692477
28735,35.480696,-82.353628,-82.486888,35.390221,Park Ridge Hospital,9.7712441994
28736,35.173643,-83.097069,-83.185838,35.085967,"Highlands - Cashiers Hospital - inc.",7.8633220994
28737,35.6145,-81.9824,-81.965061,35.363523,Rutherford Hospital,17.33387295
28738,35.4785,-83.004,-82.943476,35.525869,Haywood Regional Medical Center,4.7240003339
28739,35.252604,-82.533283,-82.468106,35.320703,Margaret R. Pardee Memoriral Hospital,5.9689100715
28740,36.018059,-82.268152,-82.062961,35.910591,Spruce Pine Community Hospital  / Blue Ridge Regional Hospital,13.684096851
28741,35.075484,-83.202772,-83.185838,35.085967,"Highlands - Cashiers Hospital - inc.",1.2015477575
28742,35.382408,-82.64102,-82.486888,35.390221,Park Ridge Hospital,8.7201864882
28743,35.815431,-82.854804,-82.943476,35.525869,Haywood Regional Medical Center,20.58147179
28744,35.1824,-83.3777,-83.377748,35.184837,Angel Medical Center,0.1680582536
28745,35.525165,-82.973064,-82.943476,35.525869,Haywood Regional Medical Center,1.6686068514
28746,35.460404,-82.178756,-81.965061,35.363523,Rutherford Hospital,13.789355654
28747,35.132249,-82.927304,-82.712454,35.256379,Transylvania Community Hospital,14.87087387
28748,35.651255,-82.765954,-82.551757,35.588653,The Endoscopy Center Asheville Gastroenterology,12.809607267
28749,35.848319,-82.077401,-82.062961,35.910591,Spruce Pine Community Hospital  / Blue Ridge Regional Hospital,4.3700818126
28750,35.2284,-82.2333,-82.465509,35.324231,Carolina Mountani Gastroenterology Endoscopy Center,14.699136961
28751,35.514344,-83.11087,-82.943476,35.525869,Haywood Regional Medical Center,9.4701776923
28752,35.738921,-82.049676,-82.062961,35.910591,Spruce Pine Community Hospital  / Blue Ridge Regional Hospital,11.861756533
28753,35.880346,-82.703324,-82.551757,35.588653,The Endoscopy Center Asheville Gastroenterology,21.845376097
28754,35.883083,-82.506865,-82.551757,35.588653,The Endoscopy Center Asheville Gastroenterology,20.459709624
28755,35.91886,-82.211551,-82.062961,35.910591,Spruce Pine Community Hospital  / Blue Ridge Regional Hospital,8.3549884249
28756,35.335904,-82.164235,-81.965061,35.363523,Rutherford Hospital,11.412066456
28757,35.650341,-82.299689,-82.551757,35.588653,The Endoscopy Center Asheville Gastroenterology,14.816464338
28758,35.376148,-82.494136,-82.486888,35.390221,Park Ridge Hospital,1.0531808366
28759,35.373951,-82.59792,-82.486888,35.390221,Park Ridge Hospital,6.3696617931
28760,35.3927,-82.5006,-82.486888,35.390221,Park Ridge Hospital,0.7928858711
28761,35.686899,-81.915453,-81.657821,35.723543,Grace Hospital,14.709155113
28762,35.627437,-82.192988,-82.548550,35.578065,Mission Hospitals,20.311456883
28763,35.046113,-83.404638,-83.377748,35.184837,Angel Medical Center,9.6857696894
28765,35.936027,-82.111198,-82.062961,35.910591,Spruce Pine Community Hospital  / Blue Ridge Regional Hospital,3.2245130542
28766,35.26116,-82.624363,-82.712454,35.256379,Transylvania Community Hospital,4.9930373814
28768,35.285473,-82.695061,-82.712454,35.256379,Transylvania Community Hospital,2.2342525975
28770,35.6209,-82.2829,-82.548550,35.578065,Mission Hospitals,15.249948554
28771,35.341744,-83.847258,-83.968818,35.075611,Murphy Medical Center,19.597582609
28772,35.130764,-82.84309,-82.712454,35.256379,Transylvania Community Hospital,11.388392604
28773,35.253586,-82.321447,-82.465509,35.324231,Carolina Mountani Gastroenterology Endoscopy Center,9.4902147708
28774,35.094063,-83.003242,-83.185838,35.085967,"Highlands - Cashiers Hospital - inc.",10.363446492
28775,35.024245,-83.322908,-83.185838,35.085967,"Highlands - Cashiers Hospital - inc.",8.8605331825
28776,35.4892,-82.5246,-82.548550,35.578065,Mission Hospitals,6.2747188787
28777,35.90612,-82.067116,-82.062961,35.910591,Spruce Pine Community Hospital  / Blue Ridge Regional Hospital,0.3865224057
28778,35.628148,-82.406266,-82.551757,35.588653,The Endoscopy Center Asheville Gastroenterology,8.6338048647
28779,35.346815,-83.183992,-83.202876,35.383952,Harris Regional Hospital,2.7740081431
28781,35.217222,-83.657052,-83.377748,35.184837,Angel Medical Center,15.964663514
28782,35.228951,-82.175788,-81.965061,35.363523,Rutherford Hospital,15.100070938
28783,35.223296,-83.034901,-83.185838,35.085967,"Highlands - Cashiers Hospital - Inc.",12.756239859
28784,35.21463,-82.430937,-82.468106,35.320703,Margaret R. Pardee Memoriral Hospital,7.6100956506
28785,35.607826,-83.02263,-82.943476,35.525869,Haywood Regional Medical Center,7.1991592833
28786,35.45009,-82.978773,-82.943476,35.525869,Haywood Regional Medical Center,5.5917197136
28787,35.730416,-82.514511,-82.551757,35.588653,The Endoscopy Center Asheville Gastroenterology,9.9978261873
28788,35.3462,-83.2194,-83.202876,35.383952,Harris Regional Hospital,2.7654154702
28789,35.432342,-83.266014,-83.200610,35.386733,Western Carolina Digestive Consultants,4.8500410319
28790,35.196633,-82.479565,-82.468106,35.320703,Margaret R. Pardee Memoriral Hospital,8.5795069795
28791,35.363026,-82.511119,-82.486888,35.390221,Park Ridge Hospital,2.3214329167
28792,35.389476,-82.380912,-82.486888,35.390221,Park Ridge Hospital,5.9842145398
28793,35.3186,-82.4613,-82.468106,35.320703,Margaret R. Pardee Memoriral Hospital,0.4110640219
28801,35.590094,-82.558245,-82.551757,35.588653,The Endoscopy Center Asheville Gastroenterology,0.3787124415
28802,35.6006,-82.5545,-82.551757,35.588653,The Endoscopy Center Asheville Gastroenterology,0.838187835
28803,35.532014,-82.522711,-82.548550,35.578065,Mission Hospitals,3.4934064228
28804,35.64815,-82.554257,-82.551757,35.588653,The Endoscopy Center Asheville Gastroenterology,4.1051535212
28805,35.621282,-82.479158,-82.551757,35.588653,The Endoscopy Center Asheville Gastroenterology,4.6666617923
28806,35.571619,-82.621572,-82.551757,35.588653,The Endoscopy Center Asheville Gastroenterology,4.1045225816
28810,35.5977,-82.5566,-82.551757,35.588653,The Endoscopy Center Asheville Gastroenterology,0.6808799057
28813,35.6006,-82.5545,-82.551757,35.588653,The Endoscopy Center Asheville Gastroenterology,0.838187835
28814,35.6006,-82.5545,-82.551757,35.588653,The Endoscopy Center Asheville Gastroenterology,0.838187835
28815,35.6006,-82.5545,-82.551757,35.588653,The Endoscopy Center Asheville Gastroenterology,0.838187835
28816,35.6006,-82.5545,-82.551757,35.588653,The Endoscopy Center Asheville Gastroenterology,0.838187835
28901,35.197799,-83.810292,-83.968818,35.075611,Murphy Medical Center,12.31285665
28902,35.028354,-83.962106,-83.968818,35.075611,Murphy Medical Center,3.2805482928
28903,34.9919,-84.1679,-83.968818,35.075611,Murphy Medical Center,12.680280131
28904,35.073862,-83.705197,-83.968818,35.075611,Murphy Medical Center,14.943662381
28905,35.161114,-83.927575,-83.968818,35.075611,Murphy Medical Center,6.341697491
28906,35.139744,-84.103558,-83.968818,35.075611,Murphy Medical Center,8.8227691415
28909,35.011807,-83.918818,-83.968818,35.075611,Murphy Medical Center,5.233819338
